{"type":"FeatureCollection","name":"Kogi State processing boundary","features":[{"type":"Feature","properties":{"name":"Kogi State","state_name":"Kogi","source":"FAO/GAUL/2015/level1","source_crs":"EPSG:3857","role":"processing_boundary"},"geometry":{"type":"Polygon","coordinates":[[[6.8349502139460245,8.406814538064319],[6.834223401526102,8.398538432402967],[6.831088640508468,8.391265683979906],[6.830865710287796,8.39074839926445],[6.830393028778447,8.389089596057204],[6.827195812816978,8.377892820012514],[6.823579517944237,8.372738113851684],[6.821760243672876,8.370142890672224],[6.820186153334086,8.36509519723765],[6.816890834173249,8.354536047936632],[6.810523311155236,8.350893005483012],[6.8071031598443215,8.348935411125225],[6.801239387672815,8.344338090228426],[6.799620755388601,8.343067246811902],[6.792401486140786,8.339268082955853],[6.792218654724617,8.339187798379841],[6.789846388187435,8.338157807401902],[6.78641735521708,8.34029365669493],[6.783862329418967,8.339410787047457],[6.773847173912301,8.333814585600669],[6.767087140470337,8.329779125246597],[6.759181217221978,8.326452673951264],[6.755555966584837,8.316366143337335],[6.755555966584837,8.306466937263266],[6.755555966584837,8.302061332510686],[6.756465609311586,8.297098382887985],[6.758102116212009,8.288175730264241],[6.75816003268297,8.281598584543111],[6.7581823333971744,8.278713501345802],[6.755497970759781,8.278178384466065],[6.750771322401793,8.27722859203962],[6.746254264113951,8.28353379684811],[6.744501839888382,8.284733293502917],[6.73483450969858,8.291341650945904],[6.733568086259785,8.289647241406756],[6.7317666051564,8.287239277653908],[6.728658674364774,8.280604163895521],[6.728498068391636,8.280251870234126],[6.724355601127892,8.271217771846047],[6.7200927364337,8.264832324696647],[6.71604828000465,8.257287496513575],[6.712124317148619,8.247526539259743],[6.711718538693897,8.246518830016985],[6.7111254259572375,8.24242976068192],[6.709381954255306,8.230408102945914],[6.707825693159396,8.218805466367135],[6.707281671800887,8.214756634846887],[6.703660883845882,8.204897512595752],[6.701734548572252,8.200086213994979],[6.699852832045458,8.197812000386197],[6.696334636456445,8.194409761646039],[6.693226617586455,8.195667174649175],[6.68738964386508,8.198021588576886],[6.680562778250153,8.19814196865307],[6.6700793953832225,8.198320364768302],[6.667127469125771,8.200077245984719],[6.654526104686005,8.207581915976006],[6.637385335113279,8.227358044979345],[6.637073140129703,8.227719228810404],[6.626175154115438,8.239210345661592],[6.61077334569853,8.257697796522814],[6.60107485291469,8.271935702788445],[6.590292745491935,8.290342832205159],[6.579207389470593,8.304607475530554],[6.569464253001174,8.316076290966473],[6.562195930428557,8.324575381155288],[6.560853754747416,8.326140485385885],[6.549309166904297,8.340414117153253],[6.539356416599425,8.354139194356003],[6.537791259110452,8.356297393685407],[6.530585405437674,8.361996154112626],[6.5261619774766295,8.365492065967922],[6.51297190772073,8.377941883817115],[6.504602170913002,8.388697256561462],[6.501663667626452,8.39243838677929],[6.501663667626452,8.392540945993638],[6.501663667626452,8.392598921540854],[6.501668061122498,8.39267029979971],[6.493927112513875,8.399492737496253],[6.482939892281269,8.405445625850405],[6.468207009531217,8.413815342523247],[6.455712593569387,8.420905308864155],[6.449657109957391,8.425012149647035],[6.443838019684107,8.428954038716304],[6.4429150168116545,8.429663025221583],[6.4340324452838855,8.436503271795276],[6.431455056333619,8.448542789388165],[6.425484384528763,8.464791775221961],[6.421493443945371,8.476733280972994],[6.419977354284522,8.48126820965405],[6.4153131171517535,8.49287969185806],[6.412811566436463,8.50208325194479],[6.410082634267525,8.512116235711334],[6.404401726687535,8.53205734165713],[6.399327299175615,8.545069008643505],[6.395978473038826,8.553652736700794],[6.392763433326891,8.569165976333538],[6.391238452732504,8.572728828213252],[6.38898215693773,8.577995032500775],[6.382387133481147,8.584340260482675],[6.382391599879013,8.584509756602815],[6.382391599879015,8.584567725726364],[6.382364882703775,8.584647989126616],[6.382347017121819,8.584701499004085],[6.382329151544953,8.584750504832675],[6.382297968004796,8.58484418764308],[6.380585658138076,8.590025664217906],[6.379087445654975,8.594547209570477],[6.3735670243514875,8.601003919339195],[6.37047686925654,8.604611345612817],[6.368113582764392,8.608120676992648],[6.363712414450039,8.614648841393617],[6.362285476443088,8.61679360400878],[6.357710515353094,8.623669529378539],[6.357153087348977,8.624503447553291],[6.357063876600157,8.624637199556647],[6.3568141845888055,8.62501178835417],[6.356725055496992,8.625149963200512],[6.35176203173214,8.632382668459382],[6.348168036264891,8.638674453319686],[6.338411477489804,8.649220223460024],[6.324980694645681,8.66121962894924],[6.316098181459558,8.668751083198863],[6.307278008524008,8.67997460525482],[6.29128773351026,8.690859331871437],[6.275721012536431,8.698970412120136],[6.261344828277525,8.709596401297196],[6.246446973152136,8.716307387984676],[6.235664867517312,8.720414250755528],[6.223937485780932,8.723615866315669],[6.21089899497023,8.72547085818163],[6.207733090302048,8.720891325322347],[6.202966318231725,8.711513844928996],[6.194181880765631,8.696437626504792],[6.184313884550052,8.68599444634303],[6.175904010132602,8.679907710511326],[6.171155072282759,8.671685198524216],[6.168149661840563,8.656970137774904],[6.162062973227652,8.637461547183854],[6.153844814317751,8.614532858654732],[6.149755805878065,8.604455295346291],[6.14632679846808,8.592286394887552],[6.141707143273935,8.57783004270834],[6.138273650403549,8.565197388072427],[6.133814586110997,8.546357651948378],[6.131665246337221,8.527705218340389],[6.132757781596132,8.509463036759318],[6.129186004241167,8.488300192939663],[6.127834894204425,8.47609558203179],[6.121627820890479,8.463512051113199],[6.123589839400766,8.442023595031074],[6.117913403651467,8.43358696650298],[6.115117509709403,8.432017372480935],[6.1096774568101955,8.409503408554205],[6.109218144450033,8.40861158299484],[6.1013344520401995,8.393263377737794],[6.098146208626585,8.381553757776125],[6.076608734958194,8.37753607101598],[6.065483312972634,8.37472687885974],[6.049296728186059,8.373389145791835],[6.047985745686569,8.373558620043106],[6.045149755048126,8.373919798289279],[6.026073790296831,8.379324172399109],[6.018256926884288,8.381299594292877],[6.011363215601228,8.383261605334063],[5.998222227502628,8.38441204628317],[5.983939722367911,8.386498935952526],[5.959771395594438,8.391064980612944],[5.952899887105427,8.394409335683013],[5.9474151920514355,8.397963213941301],[5.9227251853316565,8.398846135749022],[5.912348855528686,8.399715707495806],[5.884122700347716,8.396045862543854],[5.875369502842315,8.397115989167942],[5.864426857755614,8.405838042863339],[5.856815236124333,8.406431054152616],[5.8496672403589365,8.407015232834627],[5.837899666669396,8.407215913678144],[5.818257361148109,8.40616351029201],[5.805080743514306,8.405236023923068],[5.789817235243348,8.40364856171107],[5.773710895688507,8.407153455751043],[5.758848717954869,8.415942320211872],[5.745306445298296,8.421021229222697],[5.731478810232203,8.42263993402422],[5.715546397243732,8.422448153408732],[5.702057671044905,8.430523610157376],[5.674232870059493,8.437457501130217],[5.661132007511028,8.44114070654861],[5.648089167915286,8.448221748916755],[5.645337880503168,8.449715554012453],[5.633650590898294,8.455218116587192],[5.616656940636976,8.460814240984133],[5.601808132652911,8.470758096564312],[5.586303843122951,8.4827887440438],[5.5751070635659925,8.489901002724451],[5.566710539617117,8.49904214485231],[5.55628068094257,8.510983661849087],[5.554327602041233,8.518630941875486],[5.544834215652134,8.531250258147546],[5.5433314634922715,8.538429402627052],[5.53806977223338,8.54128766164845],[5.531800247889759,8.539084839853794],[5.531073416670742,8.53878609528668],[5.522734921922112,8.535316929077563],[5.510093373856952,8.524459032262953],[5.49627905172263,8.51246849332787],[5.479985522323129,8.50444213009737],[5.471214450366269,8.490057069279763],[5.448976867030867,8.47024970302793],[5.444277043228693,8.466062632733475],[5.420068572687757,8.439481938073776],[5.411061142910148,8.424869421975536],[5.399396152556591,8.403153668674808],[5.383035698094294,8.37643915413991],[5.366791180642516,8.356877092372011],[5.35434583487872,8.343941237566963],[5.348468719641968,8.337350716554258],[5.345672941743111,8.321480768053185],[5.352727221521275,8.309280636865939],[5.3564549859539685,8.30283721266404],[5.370358472154593,8.277456079109315],[5.376806346783711,8.2618893580037],[5.392631656616386,8.241087581032033],[5.408581874140345,8.22789760325703],[5.414062105415153,8.224111808396524],[5.415649592255011,8.222470856788318],[5.4146863865185635,8.219946977054983],[5.41686247269496,8.211835920298535],[5.425963441859201,8.203377004686567],[5.430279852356709,8.19914977024337],[5.455875091961297,8.182566406106288],[5.456178339969245,8.181215260222674],[5.458028890833955,8.173068475112258],[5.472650232769094,8.163361020786434],[5.49697463981178,8.154179753581541],[5.5168176766183175,8.139076757165471],[5.53493500616509,8.131616643542877],[5.541480928019129,8.122279309288785],[5.542711648528367,8.112567385158364],[5.548165108012626,8.092862626502582],[5.544678116007113,8.07700605115347],[5.536005188173254,8.069626228702578],[5.53484579852174,8.068636317197944],[5.523934423584864,8.064899649892261],[5.518360496231925,8.062919743603928],[5.519613546789013,8.05459465310545],[5.517981512172521,8.039393519215434],[5.517250209576499,8.022564884445528],[5.517428571314225,8.005031713007558],[5.51794132431544,7.993946414526402],[5.5218029272440186,7.989959996830994],[5.526828316654813,7.98664682094038],[5.528915236798505,7.987070441515527],[5.5338246449547865,7.990909741722396],[5.537597044043431,7.9956899358002],[5.551326615407891,8.002605974529992],[5.557845850578724,8.005954753926446],[5.560637272289663,8.00729245816991],[5.566906759165633,8.009490846000295],[5.5792094085025195,8.01343714907241],[5.589389497478384,8.014877454431545],[5.596336780182208,8.016143800765754],[5.606971792457745,8.01711590988577],[5.610160041054614,8.017490409109534],[5.61900239297742,8.018524952253008],[5.626177099294738,8.0197869255809],[5.632647290029906,8.020139182562886],[5.640967952047125,8.020687590263018],[5.647643234345679,8.019421221047985],[5.663508681471707,8.015457081813103],[5.672565154190581,8.004233533748002],[5.674201645607261,7.99105241511988],[5.6680525156043595,7.982160973774148],[5.658750854994846,7.9779382324669035],[5.646416974509762,7.971918419500213],[5.636062978490245,7.959865485405625],[5.6291245621825805,7.944758012379876],[5.62188301336404,7.939344667914342],[5.615765151157426,7.932299306631413],[5.609388620435572,7.92340785906584],[5.608046415953968,7.911667057489657],[5.608059805775848,7.898285338629533],[5.615836439290232,7.879467873295297],[5.617156367889444,7.860989406190443],[5.620910948630118,7.850314309544683],[5.629485736577235,7.837940254670207],[5.639023770824433,7.82808563841873],[5.650706588251718,7.822351285445632],[5.655990645350978,7.8208752945338045],[5.657752022496118,7.82113843310277],[5.660155444109014,7.821499584040397],[5.668730316461752,7.823430376361446],[5.6714771548557525,7.821998971520921],[5.677407736352483,7.817513162067714],[5.687641401271194,7.807881465961048],[5.6919532759824065,7.803190507393122],[5.701281757177449,7.794727116601072],[5.709361652479097,7.794588912643425],[5.719474877266527,7.791650346723023],[5.733440812671472,7.784489044656066],[5.743059088226742,7.779481446240287],[5.749761067892423,7.780061172603465],[5.763334579801207,7.777060219068855],[5.773875882958534,7.772034759731354],[5.785362594693921,7.765903538982871],[5.791730168269044,7.762501194590887],[5.801575845447661,7.757489183270379],[5.811426040470993,7.7561469930220515],[5.817013255266238,7.755380069889251],[5.826970447441924,7.757288527330624],[5.835549744958379,7.759451153408584],[5.8425104361980456,7.761636110728203],[5.850848906753015,7.763339506717407],[5.859405934457611,7.764347275759179],[5.868194818647013,7.765123189369991],[5.876564561344498,7.768900054858869],[5.8860535464386325,7.770353685824386],[5.8980663785448195,7.7706123075803015],[5.909361251470848,7.769497516030106],[5.920406445351689,7.767232292394155],[5.926577804873522,7.763433191952439],[5.922769758757056,7.756347674343929],[5.921971552830614,7.74989976015595],[5.920223645249584,7.74162816306899],[5.9192693538796,7.725495123428424],[5.915916154897968,7.717936983273079],[5.915510366383198,7.70710134007665],[5.915113445798344,7.69672503650742],[5.926421747888039,7.6820010905286695],[5.930042518871448,7.676373660436166],[5.931826181221856,7.673604593631545],[5.942282777384675,7.663504674844719],[5.94812422712997,7.653253236913738],[5.959726794890409,7.642676274225226],[5.9729702910634375,7.633450398430255],[5.980278775757741,7.6284829128590514],[5.990280560558683,7.6188513000406175],[6.002320163088565,7.607333402875104],[6.011880396459149,7.598183363865509],[6.019839901761928,7.590665318743762],[6.024611195715265,7.585969847022821],[6.022510901905193,7.584391330083803],[6.028374611876903,7.573421977629668],[6.029235262272639,7.571816637145603],[6.040869082848246,7.5630857524597035],[6.0508173448575695,7.56453054335769],[6.054991037032506,7.565614040326868],[6.062415453818765,7.56779454181345],[6.069130802309745,7.569060959583616],[6.080349902916949,7.563335449462773],[6.084635120755707,7.556802864327765],[6.085023047791753,7.552410661324933],[6.079302019882354,7.539167108142017],[6.078789277301934,7.537985491161425],[6.086240427287918,7.52747535117444],[6.102377861742324,7.526048481588357],[6.11280323305928,7.528175453372293],[6.117681492515094,7.530168686391359],[6.121395976584433,7.531488583166819],[6.12589967050928,7.52426034785987],[6.125810468430147,7.51872657881329],[6.12321970193665,7.515770228426907],[6.121583263371291,7.511819437618156],[6.118658064268095,7.504774112279674],[6.115599102394317,7.50113549075373],[6.1103195781839625,7.488770387158206],[6.106636324844801,7.474987281671246],[6.106761152602001,7.468526024463768],[6.106587250789649,7.457686008004675],[6.109681903610994,7.449097758100692],[6.111162301944109,7.44076813672619],[6.121908752346126,7.434124057214967],[6.123282132656815,7.433410621714769],[6.128508261862675,7.428247017669539],[6.13631164813913,7.425344088224997],[6.145796183020421,7.426565883440459],[6.154750031625586,7.423417787077748],[6.162999385063843,7.419583003206122],[6.166089515648046,7.425067639407421],[6.180956208005067,7.430811015455229],[6.189571184704601,7.435047161865029],[6.198395693041016,7.438360216306083],[6.217190794462274,7.4442685100888735],[6.224847133660313,7.446676429158611],[6.23372520475974,7.4529816650825],[6.234086365332192,7.453115380845208],[6.243477198039621,7.456508800069791],[6.250486957742313,7.46169474739618],[6.258883392125111,7.466858387266648],[6.264136248976267,7.463308931241963],[6.2661205520379895,7.457507640765599],[6.275622919561996,7.4453476282445585],[6.279881351007283,7.4374327200674974],[6.284193262304931,7.432973671639469],[6.294605250942905,7.434182059756447],[6.298239469743145,7.430659410564768],[6.304633805857103,7.426164594395175],[6.307130875622527,7.423587200702886],[6.313721456195629,7.417014499988195],[6.315019035240737,7.4114540078425675],[6.323807931542851,7.412457290082577],[6.332672635680885,7.404002843031312],[6.339833975759389,7.389809587554147],[6.346384345138677,7.380931505298413],[6.355547800359193,7.376392122053987],[6.360626723190194,7.376302924546224],[6.368978654789795,7.378929344218861],[6.382859842554478,7.380539076983684],[6.38879040680344,7.3798434260158015],[6.392076797620029,7.379459954083407],[6.396344148240168,7.386309174405754],[6.403987019748253,7.387794043432787],[6.410176226335626,7.385149762208135],[6.4231076507297695,7.3851586790841965],[6.430010324507132,7.383887825256448],[6.4353344678747995,7.384721755097471],[6.445269412115418,7.385243444269513],[6.447052987673444,7.3810607941798585],[6.449465418698697,7.3731726162825435],[6.454227712605409,7.368017953028113],[6.456368053125828,7.357601472568514],[6.462526144262413,7.352879295133441],[6.463596283517067,7.333254737942889],[6.467208188204228,7.3281178579136546],[6.470851282879119,7.324822624446104],[6.471542437424888,7.324813694319872],[6.476674815568607,7.323489306044639],[6.477290153135883,7.323328813481676],[6.480389297565972,7.3149724144784445],[6.480545295781844,7.3103573016710275],[6.485151564585051,7.295281090953143],[6.490850326109672,7.290799631561015],[6.497012834797947,7.286313806121083],[6.4978555974843575,7.281453419456683],[6.493182428955452,7.278073369607144],[6.49870723932402,7.26252005209076],[6.50384409952613,7.251822688998609],[6.511215033882551,7.250774752274068],[6.519789917959399,7.252705528756491],[6.530679013370241,7.25505555202329],[6.538326352046881,7.257004101370121],[6.551329119087343,7.2613963520516585],[6.564318500449039,7.265324817393271],[6.571377248775796,7.259206976588287],[6.580054664314565,7.267594474202644],[6.588861335746263,7.269520817840756],[6.594952524702432,7.2751838801604665],[6.604900760560177,7.27640125144262],[6.618095212210069,7.278483631285182],[6.625073743256268,7.281823495543231],[6.63806305377302,7.271219783855823],[6.644198804771148,7.265119676726796],[6.653335474787765,7.258966157146635],[6.6559306832706575,7.2480770466911935],[6.6564256614143975,7.235841223437046],[6.6622537064505405,7.224898608051046],[6.670293451407532,7.218749541684317],[6.677989908057016,7.212863491655217],[6.685753134041618,7.207427854622338],[6.687206864476558,7.197479621749826],[6.6907072615933005,7.185426672711778],[6.696374706682806,7.178871788753675],[6.698390246753705,7.174912086830641],[6.697449348856942,7.162141216619795],[6.696909822054802,7.154868445677293],[6.697025790148072,7.147716020967016],[6.6988986099196834,7.134994182605867],[6.700967605338348,7.119962567253047],[6.696303380065007,7.102741520297661],[6.696245437447382,7.100922203183807],[6.695848572722807,7.088904915461686],[6.690805347589147,7.076762816310902],[6.684370831363987,7.064183730298398],[6.681365378166159,7.049700527533564],[6.6770712547571796,7.041009751911316],[6.673423775916092,7.033353458352053],[6.669660258785022,7.0254474477776565],[6.671519719022122,7.011807106025191],[6.672554216970802,7.004404971952533],[6.6732988765392385,6.99331968369632],[6.672647870000471,6.9815654774196165],[6.671492961469456,6.967051104931369],[6.670783971960544,6.959617781338397],[6.670659077714194,6.958297868784827],[6.666320397417438,6.947065432381869],[6.659306217977934,6.92711542712752],[6.656599544904524,6.916779226990207],[6.650749260387278,6.911802814572976],[6.646785081232328,6.895259597072002],[6.639851150038161,6.880383998973831],[6.627343431729351,6.863524129921808],[6.621060532323782,6.846097955333212],[6.604989914135287,6.823071207309787],[6.612534761878923,6.80425825594341],[6.620770670073788,6.799272969708052],[6.6256711978052865,6.788348162534672],[6.623749401477817,6.778101119874231],[6.6221351371557375,6.769490618116173],[6.621961265636482,6.758650559057144],[6.616909090044642,6.746049088829895],[6.613141146250139,6.726964137895679],[6.610617272155824,6.699322221052835],[6.615852260030485,6.680317507299081],[6.623281168518856,6.668652486324601],[6.624948856477079,6.657321964585323],[6.634170264363406,6.642169870818435],[6.6409614581745755,6.633746707141126],[6.647743748986943,6.624864162889588],[6.650352350295304,6.614902500967324],[6.654548369569511,6.6030635943694005],[6.655627450894034,6.584125766385118],[6.6592750611448555,6.566762057753966],[6.664001692935177,6.544765269125321],[6.662900284613547,6.533711163071459],[6.664389633298142,6.527450581255356],[6.668148599852657,6.529929892000837],[6.679068975312968,6.534357729386757],[6.691398354875681,6.539918256236852],[6.697155060949982,6.539124562182243],[6.711629318386393,6.5347278831915],[6.72752154041786,6.532377893864587],[6.740189871427142,6.5303178452824335],[6.749406819828337,6.529238707317382],[6.763136386473643,6.53615476133351],[6.772496074934231,6.543610438614432],[6.778868122784448,6.552265486109543],[6.796477117592425,6.57065486003038],[6.796477117592425,6.570422937184856],[6.799112417373281,6.576607716741065],[6.802238280965677,6.584165944350594],[6.802893782381194,6.596151953499933],[6.803772208788075,6.607901699268083],[6.8045703723917805,6.614349591390015],[6.803179151131623,6.6282129364536],[6.8056851529391755,6.640631504994583],[6.811214459291478,6.654147041312645],[6.815597706368217,6.668376017764739],[6.820458188353835,6.683519164401472],[6.823182689569156,6.6947739106454325],[6.836564409337566,6.708619466305241],[6.839676859734284,6.71549093868803],[6.848550469610984,6.721796076218899],[6.859337025692904,6.731994031521961],[6.87514457953476,6.738878889920203],[6.884263391990505,6.745870802227184],[6.890604229129897,6.752456827980948],[6.900271567816769,6.765209893477798],[6.905747406879133,6.775265152261794],[6.9059346504320285,6.776174799861177],[6.907245615903314,6.782395285984826],[6.916863903167079,6.791919882309499],[6.919262901669607,6.797413547818893],[6.922156867645379,6.804976169393648],[6.931891107542908,6.821885047018803],[6.935074851878975,6.8331353726524355],[6.93989966115843,6.845973155067664],[6.943248451804646,6.853294996992683],[6.950008400418701,6.857103066600962],[6.957143002929431,6.855827738594326],[6.9647144959829514,6.852929296452273],[6.967171458434281,6.847814740699076],[6.968424477365001,6.846485885977768],[6.968473566034422,6.844773640228853],[6.96908000670308,6.839467277269369],[6.968183705756402,6.826807926505572],[6.967550475708316,6.8162175840500066],[6.979603460193026,6.815410465769546],[6.980428360114529,6.810674843172456],[6.989993165472183,6.802438961276839],[6.995602735230143,6.792423786308438],[7.000989354362479,6.782872401833386],[7.012212887860843,6.777374305368169],[7.021001741967737,6.778377651112502],[7.032158453107396,6.782801064018834],[7.038958522268034,6.789378224065526],[7.044349573803761,6.794359021922196],[7.049040590673291,6.79912577479707],[7.05447176728534,6.806416442083601],[7.064326396858194,6.816395887938603],[7.0718533691198555,6.8248057998471205],[7.07680292721845,6.8311823076476985],[7.081556327208493,6.83963672537457],[7.088824663599742,6.846664311099915],[7.096534474442455,6.8523005500858085],[7.102866411938758,6.858191074634935],[7.108721230317028,6.863394801309349],[7.112515906754242,6.869789164811844],[7.120225665425078,6.875193630922505],[7.128640000468403,6.8817440209966625],[7.13774101993263,6.887817319642561],[7.148478511567499,6.895014320492383],[7.160161400805279,6.903584740289793],[7.170176493533467,6.909180885291026],[7.171772921552846,6.909769499681669],[7.176820567195732,6.911637806198272],[7.183883781945667,6.91425083958317],[7.209104452906925,6.9320471369943855],[7.215984833966626,6.943694350099019],[7.226508365609846,6.95182327970557],[7.239693933129172,6.9677467200406715],[7.2490936939816635,6.977966944675384],[7.259920355289228,6.990934058557818],[7.270470665289746,7.000904587331905],[7.275188331040388,7.007053672970749],[7.278073427481149,7.013666567751225],[7.278782391476408,7.015294093296641],[7.280187003558767,7.016903875129537],[7.286309344893529,7.023935872218729],[7.293394828755939,7.033732522559228],[7.298125951562961,7.0408046318829625],[7.302812517308193,7.045107636287012],[7.308925948174548,7.051925602533751],[7.314731676472133,7.054132855146615],[7.322160546642803,7.056545226266237],[7.329125608401945,7.05896208196892],[7.333071980624403,7.060281961338548],[7.339568853385857,7.062244017668945],[7.34303801221461,7.063907215894287],[7.343755978855547,7.064250557416794],[7.344835085757243,7.064767816869582],[7.348406792856589,7.066480158173895],[7.356593712661745,7.074787396890389],[7.357797655058871,7.0760092232403204],[7.3641072842191715,7.080744761363373],[7.3671706857142025,7.084615328247394],[7.370675547400875,7.0870945716735445],[7.377707578568028,7.093662775166459],[7.382893475232886,7.100494177814549],[7.40167518597055,7.1052520211962875],[7.4074720778509135,7.106995509961251],[7.42392163124338,7.110406712473434],[7.436424949931092,7.112734387816876],[7.44511134761616,7.107276441496693],[7.451113232244936,7.107178313738239],[7.4607493524858945,7.103553109705984],[7.468757931390933,7.099031583562275],[7.475709703820534,7.100529840986337],[7.489742456992936,7.083215099159883],[7.494072244540066,7.079451635659612],[7.494848124950112,7.078818503765256],[7.49374228739938,7.074502013748167],[7.494451263589903,7.074368318994035],[7.495610633770359,7.074809691339634],[7.496547014726891,7.0754875098915235],[7.497474570540731,7.0759334243613665],[7.497701959903034,7.075697066465776],[7.497835767288283,7.076370444920022],[7.498928206924334,7.081953240835536],[7.500355111459361,7.082573011277485],[7.51382158745353,7.073115307357245],[7.536531848517066,7.049428504406302],[7.55501034553227,7.0357346065390285],[7.56837873879464,7.0200474872447565],[7.5815643006518725,7.02167059132317],[7.603458442788659,7.004685934508914],[7.631854020738033,7.004663624781262],[7.639158035731175,7.0423742333966555],[7.637392253534327,7.076085021818],[7.652771658476699,7.099357044900521],[7.685804654472641,7.114709781360691],[7.6878023211460595,7.115650669870924],[7.736054288560491,7.138307325368666],[7.756784649888839,7.1497226044855],[7.785528002716735,7.171148644391038],[7.787414208372136,7.17333799473539],[7.810231391809077,7.199793898624025],[7.82079057647602,7.2247604152032565],[7.831813516062382,7.264022803789041],[7.835501129415946,7.275339955546149],[7.841529850009032,7.2938496905902435],[7.844954417619576,7.320091510914383],[7.847509524601752,7.348237345822864],[7.848321042004519,7.357173380014642],[7.8558123260601525,7.378041944750022],[7.875753464878659,7.397541613120083],[7.881532457713896,7.426739789236232],[7.857645025128324,7.434298011161057],[7.823376845586696,7.42819352532422],[7.820442810257708,7.428349560697428],[7.80422947110093,7.42921462987457],[7.783722046508997,7.446172575115327],[7.7783354703592105,7.47002428327419],[7.770737190714245,7.499918097966656],[7.7636873637371275,7.5353322724041],[7.762157892220043,7.569502440750972],[7.757395575463902,7.603498555752344],[7.754657685254811,7.641128963878786],[7.75437225440014,7.645075283651121],[7.757582858498434,7.686776795579096],[7.75790386891099,7.7211430383044934],[7.755433568922197,7.745347024262277],[7.754314306191676,7.756271816617959],[7.742560094703261,7.786000684824369],[7.723430547501642,7.802477055721808],[7.6989054816893745,7.828041046703993],[7.686130223877811,7.851790216762732],[7.668574741577278,7.8800029482857745],[7.663098947758797,7.912625756746711],[7.665087687317782,7.950198157744199],[7.659705553373817,7.974513615255825],[7.660873812251897,8.004019495890745],[7.665016316918679,8.020206080222621],[7.617763257887395,8.022288434266029],[7.5744386479622685,8.027180078315851],[7.540536042479604,8.029373920864948],[7.508341365672129,8.03730668560974],[7.4827595391825215,8.040276437771052],[7.453659427181481,8.039620931819925],[7.42615121139423,8.035487345029965],[7.421950779760093,8.034854181359767],[7.399753307764248,8.032696019107942],[7.388833007612092,8.031429615100638],[7.368526260070269,8.029075231347429],[7.332090948522877,8.017468132143927],[7.296636636323241,8.009308019106513],[7.263492120222227,8.00133513469436],[7.235707498965957,7.996274005252493],[7.21204750839895,7.989527450460034],[7.188151141381162,7.982321523999517],[7.168174374503715,7.974816831395242],[7.14652543984734,7.96388313184885],[7.1283992217697385,7.956574687521914],[7.1155927055942385,7.949872600894532],[7.0960841047255725,7.942595381659519],[7.084699999757821,7.9381719194149145],[7.065597260995775,7.9274255539513385],[7.0435068110916355,7.9178830202016695],[7.018665221650265,7.909308227864158],[6.997707399841175,7.898129255212062],[6.975429775575687,7.876823650419203],[6.965584034855595,7.867535378260471],[6.963510550637839,7.866781744357918],[6.9497944046073705,7.861805431736177],[6.938624331218823,7.870759244579469],[6.937161774740224,7.894548558632927],[6.941438052118463,7.93092595655553],[6.955149752493152,7.965064819119244],[6.981213188525141,7.9920780686638695],[6.981824090668752,8.015827209298006],[6.983179685761954,8.042563964606222],[6.981734909914622,8.067503731965855],[6.989863886596464,8.099203502112902],[6.989854951033557,8.098744171121377],[6.992570516066752,8.109539646012134],[6.996556962883434,8.12792901062368],[7.000730671821854,8.14331293964627],[6.997350673695538,8.162750124865921],[7.000365074357584,8.177924448674563],[7.000405167813446,8.194762014941352],[6.99098305491806,8.211764544896129],[6.993078882252045,8.227188553985808],[6.9919418067123225,8.242661676861989],[6.977913447552453,8.260435615471062],[6.975380681725498,8.260939538237002],[6.971880277890835,8.272996915624798],[6.9643711415078045,8.279814864913764],[6.956612299328611,8.285482406673408],[6.949401971524651,8.296451780478737],[6.947925985299292,8.305008817092796],[6.94343121483266,8.312700738890502],[6.943422285564895,8.32654179228501],[6.952411886633314,8.3397720155001],[6.959983409186611,8.351405812962593],[6.968353180030469,8.36926003685934],[6.97237971538651,8.389954718902986],[6.978033851016577,8.411309346660042],[6.978154254700524,8.41181323159066],[6.969209326800041,8.41085003389687],[6.964861671862037,8.410381814453642],[6.955528782519847,8.404313028235983],[6.949888048171163,8.404491374099972],[6.939373438137308,8.404816878197806],[6.923895896380586,8.404388831659725],[6.90869039375431,8.406266086761347],[6.896262874097803,8.408781033421933],[6.884655844871484,8.40741208169006],[6.882613560562401,8.407171301328663],[6.87496618031337,8.405222655442039],[6.874359790269434,8.404446817457336],[6.874257170972343,8.404313007719699],[6.867113741795468,8.405129018349832],[6.858614686655737,8.404888248021107],[6.8569514309860375,8.404839185672838],[6.8468203133384185,8.406627293146643],[6.837826383527576,8.407242594341819],[6.8349502139460245,8.406814538064319]]]}}]}
