{"type":"FeatureCollection","name":"Kogi State processing boundary","features":[{"type":"Feature","properties":{"name":"Kogi State","role":"processing_boundary","source":"FAO GAUL 2015 level1","note":"Boundary used to generate the change-raster processing grid.","crs":"EPSG:4326"},"geometry":{"type":"Polygon","coordinates":[[[6.8349502139460245,8.40681453806433],[6.834223401526103,8.398538432402969],[6.831088640508469,8.391265683979913],[6.830865710287797,8.390748399264464],[6.830393028778448,8.389089596057204],[6.82719581281698,8.377892820012528],[6.823579517944238,8.372738113851694],[6.821760243672877,8.37014289067223],[6.820186153334087,8.365095197237654],[6.816890834173249,8.354536047936632],[6.8105233111552375,8.350893005483018],[6.8071031598443215,8.34893541112523],[6.801239387672815,8.344338090228423],[6.799620755388601,8.3430672468119],[6.792401486140786,8.33926808295586],[6.792218654724618,8.339187798379841],[6.789846388187435,8.338157807401902],[6.786417355217081,8.34029365669493],[6.783862329418967,8.339410787047465],[6.773847173912301,8.33381458560067],[6.767087140470338,8.3297791252466],[6.759181217221977,8.326452673951263],[6.755555966584838,8.316366143337344],[6.755555966584838,8.30646693726327],[6.755555966584838,8.302061332510695],[6.756465609311586,8.29709838288799],[6.758102116212011,8.288175730264252],[6.75816003268297,8.281598584543117],[6.7581823333971744,8.278713501345804],[6.755497970759782,8.278178384466077],[6.7507713224017944,8.27722859203963],[6.746254264113951,8.283533796848111],[6.744501839888382,8.284733293502928],[6.734834509698581,8.291341650945899],[6.733568086259786,8.289647241406769],[6.731766605156399,8.287239277653917],[6.728658674364775,8.280604163895525],[6.7284980683916364,8.280251870234144],[6.724355601127893,8.271217771846054],[6.7200927364337,8.264832324696636],[6.71604828000465,8.257287496513573],[6.71212431714862,8.247526539259747],[6.711718538693898,8.246518830016996],[6.7111254259572375,8.242429760681922],[6.709381954255306,8.230408102945924],[6.707825693159397,8.218805466367144],[6.707281671800888,8.214756634846882],[6.703660883845884,8.20489751259576],[6.701734548572253,8.200086213994979],[6.699852832045459,8.197812000386195],[6.696334636456446,8.194409761646034],[6.693226617586456,8.195667174649184],[6.68738964386508,8.198021588576896],[6.680562778250154,8.198141968653083],[6.670079395383223,8.19832036476831],[6.667127469125772,8.20007724598472],[6.654526104686006,8.207581915976009],[6.63738533511328,8.227358044979349],[6.637073140129704,8.227719228810413],[6.626175154115439,8.239210345661592],[6.610773345698531,8.257697796522821],[6.60107485291469,8.27193570278844],[6.590292745491935,8.290342832205157],[6.579207389470592,8.30460747553056],[6.569464253001174,8.316076290966476],[6.562195930428557,8.324575381155285],[6.560853754747417,8.326140485385883],[6.5493091669042975,8.340414117153262],[6.539356416599425,8.354139194356007],[6.537791259110453,8.356297393685411],[6.530585405437674,8.361996154112639],[6.5261619774766295,8.365492065967924],[6.51297190772073,8.377941883817117],[6.504602170913003,8.388697256561466],[6.501663667626451,8.3924383867793],[6.501663667626451,8.392540945993645],[6.501663667626451,8.392598921540865],[6.501668061122499,8.392670299799718],[6.493927112513876,8.399492737496256],[6.482939892281269,8.405445625850419],[6.468207009531218,8.413815342523254],[6.4557125935693875,8.420905308864162],[6.449657109957392,8.425012149647038],[6.443838019684107,8.428954038716302],[6.4429150168116545,8.429663025221583],[6.4340324452838855,8.436503271795278],[6.431455056333619,8.44854278938817],[6.425484384528762,8.464791775221956],[6.421493443945372,8.476733280973002],[6.419977354284523,8.481268209654056],[6.415313117151754,8.492879691858061],[6.4128115664364636,8.5020832519448],[6.410082634267524,8.51211623571134],[6.404401726687536,8.532057341657126],[6.399327299175615,8.545069008643509],[6.395978473038826,8.55365273670079],[6.392763433326891,8.569165976333542],[6.391238452732505,8.572728828213245],[6.388982156937731,8.577995032500777],[6.382387133481147,8.584340260482682],[6.382391599879015,8.584509756602822],[6.382391599879015,8.584567725726366],[6.382364882703776,8.58464798912662],[6.382347017121818,8.584701499004083],[6.382329151544954,8.58475050483268],[6.382297968004796,8.584844187643077],[6.380585658138077,8.590025664217915],[6.379087445654976,8.594547209570479],[6.373567024351488,8.601003919339199],[6.37047686925654,8.604611345612811],[6.368113582764392,8.60812067699266],[6.36371241445004,8.614648841393624],[6.3622854764430885,8.616793604008786],[6.357710515353095,8.623669529378546],[6.357153087348977,8.624503447553296],[6.357063876600157,8.624637199556652],[6.356814184588806,8.62501178835418],[6.356725055496993,8.625149963200517],[6.35176203173214,8.632382668459393],[6.348168036264892,8.638674453319696],[6.338411477489804,8.649220223460038],[6.3249806946456815,8.661219628949237],[6.316098181459559,8.668751083198876],[6.307278008524008,8.679974605254817],[6.291287733510261,8.690859331871435],[6.275721012536432,8.698970412120149],[6.261344828277525,8.709596401297198],[6.246446973152138,8.716307387984678],[6.235664867517314,8.72041425075553],[6.223937485780933,8.723615866315678],[6.210898994970231,8.725470858181632],[6.207733090302049,8.720891325322352],[6.202966318231726,8.711513844929003],[6.194181880765631,8.696437626504798],[6.184313884550053,8.685994446343033],[6.175904010132603,8.679907710511332],[6.17115507228276,8.671685198524221],[6.168149661840564,8.656970137774898],[6.162062973227652,8.637461547183856],[6.153844814317752,8.614532858654734],[6.1497558058780655,8.60445529534629],[6.146326798468081,8.59228639488756],[6.141707143273935,8.577830042708344],[6.138273650403549,8.565197388072432],[6.133814586110998,8.54635765194838],[6.131665246337222,8.527705218340397],[6.1327577815961325,8.50946303675932],[6.129186004241166,8.488300192939661],[6.127834894204425,8.476095582031798],[6.121627820890478,8.463512051113195],[6.123589839400766,8.442023595031076],[6.117913403651467,8.433586966502991],[6.115117509709404,8.432017372480939],[6.1096774568101955,8.409503408554214],[6.1092181444500335,8.408611582994848],[6.1013344520402,8.393263377737801],[6.098146208626585,8.381553757776132],[6.076608734958194,8.377536071015989],[6.065483312972634,8.374726878859736],[6.049296728186059,8.373389145791835],[6.04798574568657,8.373558620043115],[6.045149755048126,8.373919798289291],[6.026073790296832,8.379324172399116],[6.018256926884288,8.381299594292873],[6.011363215601229,8.383261605334065],[5.998222227502628,8.384412046283167],[5.983939722367912,8.386498935952533],[5.959771395594439,8.39106498061294],[5.952899887105428,8.394409335683022],[5.947415192051436,8.397963213941306],[5.922725185331656,8.398846135749029],[5.912348855528686,8.399715707495819],[5.884122700347716,8.396045862543856],[5.875369502842316,8.397115989167954],[5.864426857755615,8.405838042863348],[5.8568152361243335,8.406431054152616],[5.849667240358937,8.407015232834633],[5.837899666669396,8.407215913678138],[5.81825736114811,8.406163510292027],[5.805080743514306,8.40523602392308],[5.789817235243349,8.403648561711078],[5.773710895688507,8.407153455751045],[5.758848717954871,8.41594232021188],[5.745306445298297,8.421021229222704],[5.731478810232204,8.42263993402422],[5.715546397243731,8.422448153408732],[5.702057671044905,8.430523610157385],[5.674232870059493,8.437457501130224],[5.661132007511029,8.441140706548621],[5.648089167915288,8.44822174891676],[5.645337880503168,8.449715554012451],[5.633650590898295,8.455218116587194],[5.616656940636977,8.460814240984135],[5.601808132652911,8.470758096564314],[5.586303843122952,8.482788744043798],[5.575107063565993,8.48990100272446],[5.566710539617117,8.499042144852316],[5.556280680942571,8.51098366184909],[5.554327602041233,8.518630941875488],[5.544834215652133,8.531250258147542],[5.5433314634922715,8.538429402627052],[5.538069772233381,8.541287661648452],[5.53180024788976,8.53908483985379],[5.5310734166707425,8.538786095286682],[5.522734921922112,8.53531692907756],[5.510093373856952,8.524459032262952],[5.496279051722631,8.512468493327878],[5.47998552232313,8.50444213009737],[5.471214450366269,8.49005706927976],[5.448976867030867,8.470249703027937],[5.444277043228694,8.466062632733475],[5.420068572687756,8.439481938073783],[5.411061142910148,8.424869421975538],[5.399396152556592,8.403153668674815],[5.383035698094294,8.376439154139925],[5.366791180642517,8.356877092372017],[5.354345834878721,8.343941237566966],[5.348468719641969,8.337350716554258],[5.345672941743111,8.321480768053185],[5.352727221521274,8.309280636865944],[5.356454985953969,8.302837212664038],[5.370358472154594,8.277456079109324],[5.376806346783712,8.261889358003701],[5.392631656616386,8.241087581032044],[5.408581874140345,8.227897603257043],[5.414062105415154,8.224111808396527],[5.415649592255011,8.222470856788323],[5.414686386518564,8.219946977054986],[5.416862472694961,8.211835920298537],[5.425963441859202,8.203377004686578],[5.43027985235671,8.19914977024338],[5.455875091961298,8.182566406106293],[5.456178339969246,8.181215260222674],[5.458028890833956,8.173068475112258],[5.4726502327690945,8.163361020786434],[5.49697463981178,8.154179753581543],[5.5168176766183175,8.13907675716547],[5.534935006165091,8.13161664354288],[5.541480928019129,8.122279309288785],[5.542711648528368,8.112567385158368],[5.548165108012626,8.092862626502582],[5.5446781160071135,8.077006051153472],[5.536005188173254,8.069626228702573],[5.53484579852174,8.068636317197948],[5.523934423584864,8.064899649892268],[5.518360496231926,8.062919743603924],[5.519613546789014,8.054594653105447],[5.517981512172522,8.039393519215439],[5.517250209576498,8.022564884445538],[5.517428571314226,8.005031713007558],[5.517941324315441,7.993946414526404],[5.5218029272440186,7.989959996831003],[5.526828316654813,7.98664682094038],[5.528915236798507,7.987070441515534],[5.533824644954787,7.9909097417224055],[5.537597044043431,7.995689935800203],[5.551326615407892,8.00260597453],[5.557845850578725,8.005954753926448],[5.5606372722896635,8.007292458169909],[5.566906759165634,8.009490846000299],[5.57920940850252,8.013437149072407],[5.589389497478384,8.014877454431554],[5.596336780182209,8.016143800765759],[5.606971792457746,8.01711590988577],[5.610160041054614,8.017490409109529],[5.6190023929774195,8.018524952253008],[5.626177099294738,8.019786925580906],[5.632647290029907,8.020139182562884],[5.640967952047126,8.020687590263016],[5.647643234345679,8.019421221047988],[5.663508681471708,8.015457081813114],[5.672565154190582,8.004233533748009],[5.674201645607261,7.991052415119889],[5.66805251560436,7.982160973774159],[5.658750854994847,7.977938232466909],[5.646416974509763,7.9719184195002155],[5.636062978490245,7.959865485405634],[5.6291245621825805,7.944758012379888],[5.621883013364041,7.93934466791435],[5.615765151157427,7.932299306631409],[5.609388620435572,7.92340785906585],[5.608046415953969,7.911667057489663],[5.608059805775849,7.89828533862954],[5.6158364392902325,7.879467873295304],[5.617156367889444,7.860989406190457],[5.62091094863012,7.850314309544689],[5.629485736577235,7.837940254670213],[5.639023770824434,7.828085638418742],[5.650706588251718,7.822351285445642],[5.655990645350979,7.8208752945338125],[5.657752022496119,7.821138433102778],[5.660155444109014,7.821499584040405],[5.668730316461751,7.823430376361445],[5.671477154855753,7.8219989715209195],[5.677407736352483,7.817513162067718],[5.687641401271193,7.807881465961048],[5.6919532759824065,7.803190507393116],[5.7012817571774494,7.794727116601082],[5.709361652479097,7.794588912643421],[5.719474877266529,7.791650346723026],[5.733440812671473,7.784489044656057],[5.743059088226742,7.779481446240291],[5.749761067892423,7.780061172603474],[5.763334579801207,7.777060219068861],[5.773875882958535,7.772034759731363],[5.785362594693921,7.765903538982874],[5.791730168269044,7.762501194590894],[5.801575845447661,7.757489183270375],[5.811426040470993,7.756146993022049],[5.817013255266239,7.755380069889256],[5.826970447441925,7.757288527330625],[5.83554974495838,7.75945115340859],[5.842510436198046,7.761636110728206],[5.850848906753016,7.763339506717407],[5.8594059344576115,7.764347275759194],[5.868194818647014,7.76512318937],[5.876564561344499,7.768900054858871],[5.886053546438633,7.770353685824389],[5.89806637854482,7.7706123075803015],[5.909361251470848,7.769497516030108],[5.92040644535169,7.7672322923941515],[5.9265778048735225,7.763433191952442],[5.922769758757058,7.756347674343935],[5.921971552830615,7.749899760155949],[5.9202236452495836,7.741628163068986],[5.919269353879601,7.725495123428423],[5.915916154897968,7.717936983273082],[5.915510366383198,7.707101340076653],[5.915113445798345,7.696725036507417],[5.92642174788804,7.68200109052868],[5.930042518871448,7.676373660436164],[5.931826181221856,7.673604593631545],[5.942282777384676,7.663504674844718],[5.948124227129971,7.653253236913738],[5.959726794890409,7.642676274225228],[5.972970291063438,7.633450398430259],[5.980278775757742,7.628482912859064],[5.990280560558684,7.618851300040623],[6.002320163088565,7.60733340287511],[6.011880396459149,7.5981833638655205],[6.019839901761929,7.59066531874376],[6.024611195715266,7.585969847022831],[6.022510901905194,7.5843913300837995],[6.028374611876903,7.573421977629665],[6.029235262272638,7.571816637145614],[6.040869082848247,7.563085752459708],[6.0508173448575695,7.564530543357704],[6.054991037032508,7.565614040326874],[6.062415453818765,7.567794541813462],[6.069130802309747,7.569060959583612],[6.080349902916949,7.563335449462776],[6.084635120755706,7.556802864327771],[6.085023047791754,7.552410661324938],[6.079302019882354,7.539167108142018],[6.078789277301935,7.537985491161416],[6.086240427287918,7.527475351174437],[6.102377861742325,7.526048481588354],[6.112803233059282,7.5281754533722935],[6.117681492515095,7.530168686391364],[6.1213959765844335,7.531488583166821],[6.12589967050928,7.524260347859876],[6.125810468430147,7.518726578813299],[6.123219701936649,7.515770228426909],[6.121583263371291,7.51181943761815],[6.118658064268095,7.504774112279675],[6.1155991023943175,7.5011354907537235],[6.110319578183963,7.48877038715821],[6.106636324844802,7.47498728167125],[6.106761152602001,7.468526024463776],[6.106587250789649,7.457686008004671],[6.109681903610994,7.449097758100691],[6.111162301944109,7.440768136726198],[6.121908752346127,7.434124057214978],[6.123282132656816,7.433410621714772],[6.128508261862675,7.428247017669544],[6.136311648139131,7.425344088225008],[6.145796183020421,7.426565883440462],[6.154750031625586,7.423417787077755],[6.162999385063842,7.419583003206128],[6.166089515648047,7.425067639407422],[6.1809562080050675,7.430811015455228],[6.189571184704602,7.435047161865033],[6.198395693041017,7.438360216306088],[6.217190794462273,7.444268510088875],[6.224847133660313,7.44667642915861],[6.2337252047597405,7.452981665082495],[6.2340863653321925,7.453115380845212],[6.243477198039621,7.4565088000698045],[6.250486957742314,7.461694747396178],[6.258883392125112,7.466858387266654],[6.264136248976267,7.463308931241967],[6.2661205520379895,7.4575076407655985],[6.275622919561996,7.445347628244566],[6.279881351007283,7.4374327200674974],[6.284193262304933,7.432973671639471],[6.294605250942905,7.434182059756457],[6.298239469743145,7.430659410564769],[6.304633805857104,7.426164594395181],[6.307130875622528,7.423587200702892],[6.31372145619563,7.417014499988191],[6.315019035240738,7.411454007842569],[6.323807931542851,7.412457290082584],[6.332672635680886,7.404002843031318],[6.339833975759391,7.389809587554152],[6.346384345138678,7.380931505298415],[6.355547800359194,7.376392122053984],[6.360626723190193,7.376302924546238],[6.368978654789795,7.378929344218864],[6.382859842554478,7.38053907698369],[6.38879040680344,7.379843426015811],[6.392076797620029,7.379459954083415],[6.396344148240168,7.386309174405763],[6.403987019748254,7.38779404343278],[6.410176226335626,7.385149762208139],[6.4231076507297695,7.385158679084199],[6.4300103245071325,7.3838878252564495],[6.435334467874801,7.384721755097474],[6.445269412115419,7.385243444269514],[6.447052987673445,7.381060794179852],[6.449465418698698,7.373172616282541],[6.45422771260541,7.368017953028117],[6.4563680531258285,7.357601472568511],[6.462526144262414,7.352879295133438],[6.463596283517067,7.333254737942888],[6.4672081882042285,7.328117857913659],[6.470851282879119,7.324822624446111],[6.471542437424888,7.324813694319872],[6.476674815568609,7.323489306044645],[6.4772901531358835,7.323328813481687],[6.4803892975659725,7.314972414478444],[6.480545295781845,7.310357301671035],[6.485151564585051,7.295281090953148],[6.490850326109673,7.290799631561021],[6.497012834797947,7.286313806121093],[6.4978555974843575,7.281453419456692],[6.4931824289554525,7.278073369607152],[6.4987072393240215,7.262520052090765],[6.50384409952613,7.251822688998609],[6.511215033882552,7.2507747522740695],[6.5197899179593986,7.252705528756493],[6.530679013370242,7.255055552023287],[6.538326352046883,7.257004101370122],[6.551329119087343,7.2613963520516585],[6.5643185004490405,7.265324817393281],[6.571377248775796,7.259206976588281],[6.5800546643145665,7.267594474202646],[6.588861335746263,7.269520817840748],[6.594952524702432,7.275183880160473],[6.604900760560177,7.276401251442629],[6.61809521221007,7.278483631285182],[6.625073743256268,7.281823495543244],[6.6380630537730205,7.2712197838558215],[6.6441988047711495,7.2651196767267905],[6.653335474787765,7.2589661571466415],[6.6559306832706575,7.248077046691203],[6.656425661414398,7.235841223437058],[6.662253706450542,7.224898608051052],[6.670293451407532,7.218749541684312],[6.6779899080570155,7.212863491655213],[6.685753134041619,7.207427854622333],[6.6872068644765585,7.1974796217498325],[6.6907072615933005,7.185426672711784],[6.696374706682808,7.178871788753682],[6.698390246753705,7.174912086830652],[6.697449348856943,7.162141216619799],[6.696909822054801,7.154868445677299],[6.697025790148072,7.14771602096702],[6.6988986099196834,7.134994182605876],[6.700967605338348,7.119962567253052],[6.696303380065008,7.102741520297668],[6.696245437447382,7.1009222031838055],[6.695848572722807,7.088904915461697],[6.690805347589147,7.076762816310911],[6.684370831363987,7.064183730298401],[6.68136537816616,7.049700527533571],[6.6770712547571796,7.0410097519113215],[6.673423775916092,7.033353458352059],[6.669660258785023,7.025447447777656],[6.671519719022122,7.011807106025194],[6.672554216970802,7.004404971952531],[6.6732988765392385,6.993319683696327],[6.672647870000472,6.981565477419619],[6.671492961469456,6.967051104931376],[6.670783971960543,6.9596177813383955],[6.670659077714196,6.95829786878483],[6.666320397417439,6.947065432381879],[6.659306217977935,6.927115427127521],[6.656599544904524,6.91677922699021],[6.650749260387278,6.911802814572983],[6.646785081232329,6.8952595970720045],[6.639851150038161,6.880383998973835],[6.627343431729351,6.863524129921813],[6.6210605323237814,6.846097955333216],[6.604989914135286,6.82307120730979],[6.612534761878924,6.80425825594341],[6.62077067007379,6.799272969708051],[6.625671197805288,6.788348162534669],[6.623749401477817,6.778101119874236],[6.6221351371557375,6.769490618116177],[6.621961265636483,6.758650559057144],[6.616909090044643,6.746049088829903],[6.613141146250139,6.726964137895689],[6.6106172721558245,6.699322221052844],[6.615852260030485,6.680317507299081],[6.623281168518857,6.668652486324603],[6.624948856477079,6.657321964585328],[6.634170264363408,6.642169870818439],[6.640961458174576,6.633746707141129],[6.647743748986944,6.624864162889593],[6.650352350295304,6.614902500967326],[6.654548369569512,6.603063594369409],[6.655627450894035,6.584125766385132],[6.6592750611448555,6.5667620577539685],[6.664001692935177,6.544765269125332],[6.662900284613548,6.533711163071459],[6.664389633298142,6.527450581255358],[6.668148599852657,6.529929892000834],[6.679068975312969,6.53435772938676],[6.691398354875683,6.539918256236853],[6.697155060949984,6.539124562182247],[6.711629318386394,6.534727883191503],[6.72752154041786,6.532377893864586],[6.740189871427142,6.530317845282438],[6.749406819828337,6.529238707317388],[6.763136386473643,6.536154761333518],[6.772496074934231,6.543610438614432],[6.778868122784449,6.552265486109552],[6.796477117592426,6.570654860030384],[6.796477117592426,6.57042293718485],[6.799112417373282,6.576607716741081],[6.802238280965678,6.584165944350605],[6.802893782381193,6.596151953499944],[6.803772208788076,6.607901699268092],[6.804570372391781,6.614349591390026],[6.803179151131624,6.628212936453601],[6.805685152939176,6.640631504994588],[6.811214459291479,6.6541470413126484],[6.815597706368217,6.668376017764742],[6.820458188353835,6.683519164401472],[6.8231826895691565,6.694773910645433],[6.836564409337567,6.708619466305244],[6.839676859734284,6.715490938688038],[6.848550469610984,6.721796076218905],[6.859337025692904,6.731994031521967],[6.87514457953476,6.738878889920209],[6.884263391990505,6.7458708022271905],[6.890604229129898,6.7524568279809545],[6.90027156781677,6.765209893477807],[6.905747406879134,6.775265152261807],[6.9059346504320285,6.77617479986118],[6.907245615903313,6.782395285984831],[6.91686390316708,6.791919882309497],[6.919262901669607,6.7974135478189],[6.92215686764538,6.804976169393662],[6.931891107542909,6.8218850470188075],[6.9350748518789755,6.83313537265245],[6.939899661158431,6.8459731550676635],[6.943248451804648,6.853294996992691],[6.950008400418701,6.857103066600969],[6.957143002929432,6.85582773859433],[6.964714495982953,6.852929296452273],[6.967171458434281,6.847814740699076],[6.9684244773650015,6.846485885977768],[6.968473566034422,6.844773640228851],[6.969080006703082,6.83946727726937],[6.9681837057564024,6.826807926505582],[6.967550475708317,6.816217584050013],[6.979603460193026,6.815410465769551],[6.980428360114529,6.810674843172466],[6.9899931654721845,6.802438961276846],[6.995602735230143,6.7924237863084445],[7.00098935436248,6.782872401833396],[7.012212887860844,6.777374305368169],[7.021001741967737,6.778377651112511],[7.032158453107396,6.782801064018834],[7.038958522268035,6.789378224065529],[7.044349573803763,6.7943590219221965],[7.049040590673292,6.799125774797075],[7.05447176728534,6.806416442083613],[7.0643263968581955,6.816395887938608],[7.071853369119856,6.824805799847126],[7.07680292721845,6.8311823076477],[7.081556327208494,6.83963672537457],[7.088824663599743,6.846664311099922],[7.096534474442456,6.8523005500858165],[7.102866411938759,6.858191074634937],[7.108721230317028,6.8633948013093455],[7.1125159067542425,6.86978916481185],[7.120225665425079,6.875193630922515],[7.128640000468404,6.881744020996665],[7.137741019932631,6.887817319642563],[7.1484785115675,6.8950143204923915],[7.160161400805279,6.903584740289791],[7.170176493533468,6.909180885291026],[7.171772921552848,6.909769499681684],[7.176820567195733,6.911637806198287],[7.183883781945666,6.91425083958317],[7.209104452906925,6.932047136994394],[7.215984833966626,6.943694350099024],[7.226508365609848,6.951823279705568],[7.239693933129172,6.967746720040677],[7.2490936939816635,6.9779669446753845],[7.259920355289228,6.99093405855783],[7.2704706652897455,7.0009045873319105],[7.275188331040387,7.007053672970751],[7.278073427481149,7.013666567751224],[7.27878239147641,7.015294093296637],[7.280187003558769,7.016903875129546],[7.286309344893529,7.023935872218721],[7.2933948287559405,7.033732522559238],[7.298125951562961,7.040804631882968],[7.302812517308193,7.0451076362870095],[7.308925948174548,7.051925602533755],[7.3147316764721335,7.054132855146624],[7.322160546642805,7.056545226266233],[7.329125608401946,7.058962081968923],[7.333071980624404,7.0602819613385535],[7.339568853385857,7.062244017668959],[7.34303801221461,7.063907215894293],[7.343755978855547,7.064250557416792],[7.344835085757242,7.064767816869595],[7.34840679285659,7.066480158173901],[7.356593712661745,7.074787396890391],[7.357797655058871,7.076009223240321],[7.364107284219172,7.080744761363376],[7.3671706857142025,7.084615328247399],[7.370675547400875,7.087094571673549],[7.377707578568028,7.093662775166472],[7.382893475232887,7.100494177814556],[7.40167518597055,7.105252021196293],[7.407472077850913,7.106995509961261],[7.42392163124338,7.110406712473439],[7.436424949931092,7.112734387816876],[7.445111347616161,7.107276441496697],[7.451113232244936,7.107178313738249],[7.460749352485894,7.103553109705989],[7.468757931390933,7.099031583562285],[7.475709703820533,7.100529840986349],[7.489742456992935,7.083215099159894],[7.494072244540066,7.079451635659613],[7.494848124950112,7.07881850376527],[7.493742287399382,7.074502013748172],[7.494451263589905,7.07436831899405],[7.49561063377036,7.074809691339641],[7.4965470147268904,7.075487509891524],[7.497474570540732,7.075933424361378],[7.497701959903034,7.075697066465782],[7.497835767288283,7.076370444920023],[7.498928206924336,7.081953240835537],[7.500355111459361,7.082573011277484],[7.51382158745353,7.073115307357247],[7.536531848517066,7.049428504406314],[7.555010345532269,7.035734606539027],[7.56837873879464,7.02004748724476],[7.5815643006518725,7.021670591323176],[7.603458442788659,7.00468593450892],[7.631854020738032,7.004663624781266],[7.639158035731175,7.042374233396665],[7.637392253534326,7.076085021818003],[7.652771658476699,7.099357044900532],[7.68580465447264,7.114709781360696],[7.687802321146059,7.115650669870937],[7.736054288560491,7.138307325368669],[7.756784649888841,7.149722604485507],[7.785528002716735,7.171148644391049],[7.787414208372136,7.173337994735385],[7.8102313918090776,7.199793898624027],[7.82079057647602,7.22476041520326],[7.831813516062382,7.2640228037890475],[7.835501129415946,7.275339955546152],[7.8415298500090325,7.293849690590245],[7.844954417619576,7.320091510914386],[7.847509524601752,7.34823734582287],[7.848321042004521,7.357173380014638],[7.855812326060152,7.37804194475003],[7.875753464878659,7.3975416131200875],[7.881532457713896,7.426739789236237],[7.857645025128324,7.434298011161055],[7.823376845586697,7.4281935253242155],[7.820442810257708,7.428349560697435],[7.80422947110093,7.429214629874574],[7.783722046508997,7.446172575115326],[7.778335470359211,7.470024283274193],[7.770737190714245,7.499918097966654],[7.7636873637371275,7.535332272404106],[7.762157892220043,7.569502440750979],[7.757395575463904,7.603498555752352],[7.75465768525481,7.64112896387879],[7.754372254400141,7.645075283651127],[7.757582858498433,7.686776795579107],[7.757903868910989,7.721143038304495],[7.755433568922198,7.7453470242622755],[7.754314306191678,7.7562718166179625],[7.742560094703261,7.786000684824372],[7.723430547501642,7.8024770557218135],[7.6989054816893745,7.828041046703989],[7.6861302238778135,7.851790216762726],[7.668574741577278,7.880002948285776],[7.663098947758797,7.912625756746719],[7.665087687317781,7.95019815774421],[7.6597055533738185,7.974513615255831],[7.660873812251897,8.00401949589075],[7.665016316918679,8.02020608022262],[7.617763257887395,8.02228843426604],[7.5744386479622685,8.027180078315858],[7.540536042479604,8.029373920864952],[7.5083413656721305,8.037306685609748],[7.4827595391825215,8.040276437771057],[7.453659427181481,8.039620931819936],[7.42615121139423,8.03548734502997],[7.421950779760092,8.034854181359774],[7.399753307764248,8.032696019107942],[7.388833007612092,8.031429615100649],[7.368526260070269,8.02907523134743],[7.332090948522878,8.017468132143929],[7.296636636323241,8.009308019106518],[7.263492120222227,8.001335134694363],[7.235707498965957,7.996274005252493],[7.21204750839895,7.989527450460037],[7.188151141381162,7.982321523999517],[7.168174374503716,7.974816831395248],[7.146525439847341,7.963883131848849],[7.128399221769739,7.9565746875219086],[7.1155927055942385,7.949872600894541],[7.096084104725573,7.9425953816595225],[7.084699999757821,7.938171919414923],[7.065597260995776,7.927425553951343],[7.0435068110916355,7.917883020201679],[7.018665221650265,7.909308227864164],[6.997707399841175,7.898129255212069],[6.975429775575688,7.87682365041921],[6.965584034855595,7.867535378260473],[6.96351055063784,7.866781744357922],[6.949794404607371,7.861805431736184],[6.938624331218824,7.8707592445794825],[6.937161774740224,7.894548558632929],[6.941438052118463,7.930925956555531],[6.955149752493153,7.96506481911925],[6.981213188525141,7.992078068663873],[6.981824090668753,8.015827209298015],[6.983179685761955,8.042563964606224],[6.981734909914624,8.067503731965864],[6.989863886596464,8.099203502112905],[6.989854951033558,8.098744171121375],[6.992570516066752,8.109539646012145],[6.996556962883435,8.127929010623683],[7.000730671821855,8.143312939646275],[6.997350673695538,8.162750124865928],[7.0003650743575845,8.177924448674561],[7.0004051678134465,8.194762014941356],[6.99098305491806,8.211764544896129],[6.993078882252046,8.227188553985819],[6.991941806712323,8.242661676861994],[6.977913447552453,8.260435615471069],[6.975380681725499,8.260939538237006],[6.971880277890835,8.272996915624807],[6.9643711415078045,8.279814864913764],[6.9566122993286115,8.28548240667341],[6.949401971524652,8.296451780478735],[6.9479259852992925,8.305008817092803],[6.943431214832661,8.312700738890504],[6.943422285564895,8.326541792285003],[6.952411886633315,8.339772015500106],[6.959983409186611,8.351405812962598],[6.96835318003047,8.369260036859348],[6.97237971538651,8.389954718902997],[6.978033851016578,8.411309346660051],[6.978154254700524,8.411813231590669],[6.96920932680004,8.410850033896876],[6.964861671862038,8.410381814453649],[6.955528782519848,8.40431302823599],[6.949888048171164,8.404491374099967],[6.939373438137308,8.40481687819781],[6.923895896380587,8.404388831659729],[6.90869039375431,8.40626608676135],[6.896262874097803,8.408781033421944],[6.884655844871484,8.40741208169006],[6.882613560562401,8.407171301328672],[6.87496618031337,8.40522265544204],[6.874359790269435,8.404446817457332],[6.874257170972344,8.404313007719708],[6.867113741795469,8.405129018349841],[6.858614686655739,8.404888248021118],[6.856951430986039,8.404839185672841],[6.846820313338419,8.406627293146643],[6.837826383527576,8.407242594341827],[6.8349502139460245,8.40681453806433]]]}}]}