{"type":"FeatureCollection","name":"Kogi change raster tile index","features":[{"type":"Feature","properties":{"tile_id":1,"candidate":true,"permanent":true,"candidate_path":"data/candidate_change/Kogi_VegLoss_tile_0001.tif","permanent_path":"data/permanent_change/Kogi_PermanentChange_tile_0001.tif","xmin_3857":735070.0,"ymin_3857":728200.0,"xmax_3857":755070.0,"ymax_3857":748200.0,"pixel_size_m":10,"width":2000,"height":2000,"has_candidate":true,"has_permanent":true,"bounds_source":"verified_raster_headers","bounds_wgs84":[6.603246158977366,6.52736647252976,6.78290921580127,6.7058327959148],"permanent_processing_status":"saved"},"geometry":{"type":"Polygon","coordinates":[[[6.78290921580127,6.52736647252976],[6.78290921580127,6.7058327959148],[6.603246158977366,6.7058327959148],[6.603246158977366,6.52736647252976],[6.78290921580127,6.52736647252976]]]},"bbox":[6.603246158977366,6.52736647252976,6.78290921580127,6.7058327959148]},{"type":"Feature","properties":{"tile_id":2,"candidate":true,"permanent":true,"candidate_path":"data/candidate_change/Kogi_VegLoss_tile_0002.tif","permanent_path":"data/permanent_change/Kogi_PermanentChange_tile_0002.tif","xmin_3857":755070.0,"ymin_3857":728200.0,"xmax_3857":775070.0,"ymax_3857":748200.0,"pixel_size_m":10,"width":2000,"height":2000,"has_candidate":true,"has_permanent":true,"bounds_source":"verified_raster_headers","bounds_wgs84":[6.78290921580127,6.52736647252976,6.962572272625175,6.7058327959148],"permanent_processing_status":"saved"},"geometry":{"type":"Polygon","coordinates":[[[6.962572272625175,6.52736647252976],[6.962572272625175,6.7058327959148],[6.78290921580127,6.7058327959148],[6.78290921580127,6.52736647252976],[6.962572272625175,6.52736647252976]]]},"bbox":[6.78290921580127,6.52736647252976,6.962572272625175,6.7058327959148]},{"type":"Feature","properties":{"tile_id":3,"candidate":true,"permanent":true,"candidate_path":"data/candidate_change/Kogi_VegLoss_tile_0003.tif","permanent_path":"data/permanent_change/Kogi_PermanentChange_tile_0003.tif","xmin_3857":735070.0,"ymin_3857":748200.0,"xmax_3857":755070.0,"ymax_3857":768200.0,"pixel_size_m":10,"width":2000,"height":2000,"has_candidate":true,"has_permanent":true,"bounds_source":"verified_raster_headers","bounds_wgs84":[6.603246158977366,6.7058327959148,6.78290921580127,6.884233783682185],"permanent_processing_status":"saved"},"geometry":{"type":"Polygon","coordinates":[[[6.78290921580127,6.7058327959148],[6.78290921580127,6.884233783682185],[6.603246158977366,6.884233783682185],[6.603246158977366,6.7058327959148],[6.78290921580127,6.7058327959148]]]},"bbox":[6.603246158977366,6.7058327959148,6.78290921580127,6.884233783682185]},{"type":"Feature","properties":{"tile_id":4,"candidate":true,"permanent":true,"candidate_path":"data/candidate_change/Kogi_VegLoss_tile_0004.tif","permanent_path":"data/permanent_change/Kogi_PermanentChange_tile_0004.tif","xmin_3857":755070.0,"ymin_3857":748200.0,"xmax_3857":775070.0,"ymax_3857":768200.0,"pixel_size_m":10,"width":2000,"height":2000,"has_candidate":true,"has_permanent":true,"bounds_source":"verified_raster_headers","bounds_wgs84":[6.78290921580127,6.7058327959148,6.962572272625175,6.884233783682185],"permanent_processing_status":"saved"},"geometry":{"type":"Polygon","coordinates":[[[6.962572272625175,6.7058327959148],[6.962572272625175,6.884233783682185],[6.78290921580127,6.884233783682185],[6.78290921580127,6.7058327959148],[6.962572272625175,6.7058327959148]]]},"bbox":[6.78290921580127,6.7058327959148,6.962572272625175,6.884233783682185]},{"type":"Feature","properties":{"tile_id":5,"candidate":false,"permanent":false,"candidate_path":null,"permanent_path":null,"xmin_3857":775070,"ymin_3857":748200,"xmax_3857":795070,"ymax_3857":768200,"pixel_size_m":10,"width":2000,"height":2000,"has_candidate":false,"has_permanent":false,"bounds_source":"existing_processing_grid_no_saved_raster","bounds_wgs84":[6.962572272625175,6.705832795914812,7.142235329449079,6.884233783682197],"permanent_processing_status":"no_change"},"geometry":{"type":"Polygon","coordinates":[[[6.962572272625175,6.705832795914812],[7.142235329449079,6.705832795914812],[7.142235329449079,6.884233783682197],[6.962572272625175,6.884233783682197],[6.962572272625175,6.705832795914812]]]},"bbox":[6.962572272625175,6.705832795914812,7.142235329449079,6.884233783682197]},{"type":"Feature","properties":{"tile_id":6,"candidate":true,"permanent":true,"candidate_path":"data/candidate_change/Kogi_VegLoss_tile_0006.tif","permanent_path":"data/permanent_change/Kogi_PermanentChange_tile_0006.tif","xmin_3857":735070.0,"ymin_3857":768200.0,"xmax_3857":755070.0,"ymax_3857":788200.0,"pixel_size_m":10,"width":2000,"height":2000,"has_candidate":true,"has_permanent":true,"bounds_source":"verified_raster_headers","bounds_wgs84":[6.603246158977366,6.884233783682185,6.78290921580127,7.06256773079333],"permanent_processing_status":"saved"},"geometry":{"type":"Polygon","coordinates":[[[6.78290921580127,6.884233783682185],[6.78290921580127,7.06256773079333],[6.603246158977366,7.06256773079333],[6.603246158977366,6.884233783682185],[6.78290921580127,6.884233783682185]]]},"bbox":[6.603246158977366,6.884233783682185,6.78290921580127,7.06256773079333]},{"type":"Feature","properties":{"tile_id":7,"candidate":true,"permanent":true,"candidate_path":"data/candidate_change/Kogi_VegLoss_tile_0007.tif","permanent_path":"data/permanent_change/Kogi_PermanentChange_tile_0007.tif","xmin_3857":755070.0,"ymin_3857":768200.0,"xmax_3857":775070.0,"ymax_3857":788200.0,"pixel_size_m":10,"width":2000,"height":2000,"has_candidate":true,"has_permanent":true,"bounds_source":"verified_raster_headers","bounds_wgs84":[6.78290921580127,6.884233783682185,6.962572272625175,7.06256773079333],"permanent_processing_status":"saved"},"geometry":{"type":"Polygon","coordinates":[[[6.962572272625175,6.884233783682185],[6.962572272625175,7.06256773079333],[6.78290921580127,7.06256773079333],[6.78290921580127,6.884233783682185],[6.962572272625175,6.884233783682185]]]},"bbox":[6.78290921580127,6.884233783682185,6.962572272625175,7.06256773079333]},{"type":"Feature","properties":{"tile_id":8,"candidate":true,"permanent":true,"candidate_path":"data/candidate_change/Kogi_VegLoss_tile_0008.tif","permanent_path":"data/permanent_change/Kogi_PermanentChange_tile_0008.tif","xmin_3857":775070.0,"ymin_3857":768200.0,"xmax_3857":795070.0,"ymax_3857":788200.0,"pixel_size_m":10,"width":2000,"height":2000,"has_candidate":true,"has_permanent":true,"bounds_source":"verified_raster_headers","bounds_wgs84":[6.962572272625175,6.884233783682185,7.142235329449079,7.06256773079333],"permanent_processing_status":"saved"},"geometry":{"type":"Polygon","coordinates":[[[7.142235329449079,6.884233783682185],[7.142235329449079,7.06256773079333],[6.962572272625175,7.06256773079333],[6.962572272625175,6.884233783682185],[7.142235329449079,6.884233783682185]]]},"bbox":[6.962572272625175,6.884233783682185,7.142235329449079,7.06256773079333]},{"type":"Feature","properties":{"tile_id":9,"candidate":true,"permanent":true,"candidate_path":"data/candidate_change/Kogi_VegLoss_tile_0009.tif","permanent_path":"data/permanent_change/Kogi_PermanentChange_tile_0009.tif","xmin_3857":795070.0,"ymin_3857":768200.0,"xmax_3857":815070.0,"ymax_3857":788200.0,"pixel_size_m":10,"width":2000,"height":2000,"has_candidate":true,"has_permanent":true,"bounds_source":"verified_raster_headers","bounds_wgs84":[7.142235329449079,6.884233783682185,7.3218983862729825,7.06256773079333],"permanent_processing_status":"saved"},"geometry":{"type":"Polygon","coordinates":[[[7.3218983862729825,6.884233783682185],[7.3218983862729825,7.06256773079333],[7.142235329449079,7.06256773079333],[7.142235329449079,6.884233783682185],[7.3218983862729825,6.884233783682185]]]},"bbox":[7.142235329449079,6.884233783682185,7.3218983862729825,7.06256773079333]},{"type":"Feature","properties":{"tile_id":10,"candidate":false,"permanent":false,"candidate_path":null,"permanent_path":null,"xmin_3857":815070,"ymin_3857":768200,"xmax_3857":835070,"ymax_3857":788200,"pixel_size_m":10,"width":2000,"height":2000,"has_candidate":false,"has_permanent":false,"bounds_source":"existing_processing_grid_no_saved_raster","bounds_wgs84":[7.321898386272984,6.884233783682197,7.501561443096887,7.06256773079333],"permanent_processing_status":"no_change"},"geometry":{"type":"Polygon","coordinates":[[[7.321898386272984,6.884233783682197],[7.501561443096887,6.884233783682197],[7.501561443096887,7.06256773079333],[7.321898386272984,7.06256773079333],[7.321898386272984,6.884233783682197]]]},"bbox":[7.321898386272984,6.884233783682197,7.501561443096887,7.06256773079333]},{"type":"Feature","properties":{"tile_id":11,"candidate":true,"permanent":true,"candidate_path":"data/candidate_change/Kogi_VegLoss_tile_0011.tif","permanent_path":"data/permanent_change/Kogi_PermanentChange_tile_0011.tif","xmin_3857":835070.0,"ymin_3857":768200.0,"xmax_3857":855070.0,"ymax_3857":788200.0,"pixel_size_m":10,"width":2000,"height":2000,"has_candidate":true,"has_permanent":true,"bounds_source":"verified_raster_headers","bounds_wgs84":[7.501561443096887,6.884233783682185,7.681224499920792,7.06256773079333],"permanent_processing_status":"saved"},"geometry":{"type":"Polygon","coordinates":[[[7.681224499920792,6.884233783682185],[7.681224499920792,7.06256773079333],[7.501561443096887,7.06256773079333],[7.501561443096887,6.884233783682185],[7.681224499920792,6.884233783682185]]]},"bbox":[7.501561443096887,6.884233783682185,7.681224499920792,7.06256773079333]},{"type":"Feature","properties":{"tile_id":12,"candidate":true,"permanent":true,"candidate_path":"data/candidate_change/Kogi_VegLoss_tile_0012.tif","permanent_path":"data/permanent_change/Kogi_PermanentChange_tile_0012.tif","xmin_3857":735070.0,"ymin_3857":788200.0,"xmax_3857":755070.0,"ymax_3857":808200.0,"pixel_size_m":10,"width":2000,"height":2000,"has_candidate":true,"has_permanent":true,"bounds_source":"verified_raster_headers","bounds_wgs84":[6.603246158977366,7.06256773079333,6.78290921580127,7.240832935448677],"permanent_processing_status":"saved"},"geometry":{"type":"Polygon","coordinates":[[[6.78290921580127,7.06256773079333],[6.78290921580127,7.240832935448677],[6.603246158977366,7.240832935448677],[6.603246158977366,7.06256773079333],[6.78290921580127,7.06256773079333]]]},"bbox":[6.603246158977366,7.06256773079333,6.78290921580127,7.240832935448677]},{"type":"Feature","properties":{"tile_id":13,"candidate":true,"permanent":true,"candidate_path":"data/candidate_change/Kogi_VegLoss_tile_0013.tif","permanent_path":"data/permanent_change/Kogi_PermanentChange_tile_0013.tif","xmin_3857":755070.0,"ymin_3857":788200.0,"xmax_3857":775070.0,"ymax_3857":808200.0,"pixel_size_m":10,"width":2000,"height":2000,"has_candidate":true,"has_permanent":true,"bounds_source":"verified_raster_headers","bounds_wgs84":[6.78290921580127,7.06256773079333,6.962572272625175,7.240832935448677],"permanent_processing_status":"saved"},"geometry":{"type":"Polygon","coordinates":[[[6.962572272625175,7.06256773079333],[6.962572272625175,7.240832935448677],[6.78290921580127,7.240832935448677],[6.78290921580127,7.06256773079333],[6.962572272625175,7.06256773079333]]]},"bbox":[6.78290921580127,7.06256773079333,6.962572272625175,7.240832935448677]},{"type":"Feature","properties":{"tile_id":14,"candidate":true,"permanent":true,"candidate_path":"data/candidate_change/Kogi_VegLoss_tile_0014.tif","permanent_path":"data/permanent_change/Kogi_PermanentChange_tile_0014.tif","xmin_3857":775070.0,"ymin_3857":788200.0,"xmax_3857":795070.0,"ymax_3857":808200.0,"pixel_size_m":10,"width":2000,"height":2000,"has_candidate":true,"has_permanent":true,"bounds_source":"verified_raster_headers","bounds_wgs84":[6.962572272625175,7.06256773079333,7.142235329449079,7.240832935448677],"permanent_processing_status":"saved"},"geometry":{"type":"Polygon","coordinates":[[[7.142235329449079,7.06256773079333],[7.142235329449079,7.240832935448677],[6.962572272625175,7.240832935448677],[6.962572272625175,7.06256773079333],[7.142235329449079,7.06256773079333]]]},"bbox":[6.962572272625175,7.06256773079333,7.142235329449079,7.240832935448677]},{"type":"Feature","properties":{"tile_id":15,"candidate":true,"permanent":true,"candidate_path":"data/candidate_change/Kogi_VegLoss_tile_0015.tif","permanent_path":"data/permanent_change/Kogi_PermanentChange_tile_0015.tif","xmin_3857":795070.0,"ymin_3857":788200.0,"xmax_3857":815070.0,"ymax_3857":808200.0,"pixel_size_m":10,"width":2000,"height":2000,"has_candidate":true,"has_permanent":true,"bounds_source":"verified_raster_headers","bounds_wgs84":[7.142235329449079,7.06256773079333,7.3218983862729825,7.240832935448677],"permanent_processing_status":"saved"},"geometry":{"type":"Polygon","coordinates":[[[7.3218983862729825,7.06256773079333],[7.3218983862729825,7.240832935448677],[7.142235329449079,7.240832935448677],[7.142235329449079,7.06256773079333],[7.3218983862729825,7.06256773079333]]]},"bbox":[7.142235329449079,7.06256773079333,7.3218983862729825,7.240832935448677]},{"type":"Feature","properties":{"tile_id":16,"candidate":true,"permanent":true,"candidate_path":"data/candidate_change/Kogi_VegLoss_tile_0016.tif","permanent_path":"data/permanent_change/Kogi_PermanentChange_tile_0016.tif","xmin_3857":815070.0,"ymin_3857":788200.0,"xmax_3857":835070.0,"ymax_3857":808200.0,"pixel_size_m":10,"width":2000,"height":2000,"has_candidate":true,"has_permanent":true,"bounds_source":"verified_raster_headers","bounds_wgs84":[7.3218983862729825,7.06256773079333,7.501561443096887,7.240832935448677],"permanent_processing_status":"saved"},"geometry":{"type":"Polygon","coordinates":[[[7.501561443096887,7.06256773079333],[7.501561443096887,7.240832935448677],[7.3218983862729825,7.240832935448677],[7.3218983862729825,7.06256773079333],[7.501561443096887,7.06256773079333]]]},"bbox":[7.3218983862729825,7.06256773079333,7.501561443096887,7.240832935448677]},{"type":"Feature","properties":{"tile_id":17,"candidate":true,"permanent":true,"candidate_path":"data/candidate_change/Kogi_VegLoss_tile_0017.tif","permanent_path":"data/permanent_change/Kogi_PermanentChange_tile_0017.tif","xmin_3857":835070.0,"ymin_3857":788200.0,"xmax_3857":855070.0,"ymax_3857":808200.0,"pixel_size_m":10,"width":2000,"height":2000,"has_candidate":true,"has_permanent":true,"bounds_source":"verified_raster_headers","bounds_wgs84":[7.501561443096887,7.06256773079333,7.681224499920792,7.240832935448677],"permanent_processing_status":"saved"},"geometry":{"type":"Polygon","coordinates":[[[7.681224499920792,7.06256773079333],[7.681224499920792,7.240832935448677],[7.501561443096887,7.240832935448677],[7.501561443096887,7.06256773079333],[7.681224499920792,7.06256773079333]]]},"bbox":[7.501561443096887,7.06256773079333,7.681224499920792,7.240832935448677]},{"type":"Feature","properties":{"tile_id":18,"candidate":true,"permanent":true,"candidate_path":"data/candidate_change/Kogi_VegLoss_tile_0018.tif","permanent_path":"data/permanent_change/Kogi_PermanentChange_tile_0018.tif","xmin_3857":855070.0,"ymin_3857":788200.0,"xmax_3857":875070.0,"ymax_3857":808200.0,"pixel_size_m":10,"width":2000,"height":2000,"has_candidate":true,"has_permanent":true,"bounds_source":"verified_raster_headers","bounds_wgs84":[7.681224499920792,7.06256773079333,7.8608875567446965,7.240832935448677],"permanent_processing_status":"saved"},"geometry":{"type":"Polygon","coordinates":[[[7.8608875567446965,7.06256773079333],[7.8608875567446965,7.240832935448677],[7.681224499920792,7.240832935448677],[7.681224499920792,7.06256773079333],[7.8608875567446965,7.06256773079333]]]},"bbox":[7.681224499920792,7.06256773079333,7.8608875567446965,7.240832935448677]},{"type":"Feature","properties":{"tile_id":19,"candidate":false,"permanent":false,"candidate_path":null,"permanent_path":null,"xmin_3857":695070,"ymin_3857":808200,"xmax_3857":715070,"ymax_3857":828200,"pixel_size_m":10,"width":2000,"height":2000,"has_candidate":false,"has_permanent":false,"bounds_source":"existing_processing_grid_no_saved_raster","bounds_wgs84":[6.243920045329558,7.24083293544869,6.423583102153462,7.419027699166977],"permanent_processing_status":"no_change"},"geometry":{"type":"Polygon","coordinates":[[[6.243920045329558,7.24083293544869],[6.423583102153462,7.24083293544869],[6.423583102153462,7.419027699166977],[6.243920045329558,7.419027699166977],[6.243920045329558,7.24083293544869]]]},"bbox":[6.243920045329558,7.24083293544869,6.423583102153462,7.419027699166977]},{"type":"Feature","properties":{"tile_id":20,"candidate":true,"permanent":true,"candidate_path":"data/candidate_change/Kogi_VegLoss_tile_0020.tif","permanent_path":"data/permanent_change/Kogi_PermanentChange_tile_0020.tif","xmin_3857":715070.0,"ymin_3857":808200.0,"xmax_3857":735070.0,"ymax_3857":828200.0,"pixel_size_m":10,"width":2000,"height":2000,"has_candidate":true,"has_permanent":true,"bounds_source":"verified_raster_headers","bounds_wgs84":[6.4235831021534615,7.240832935448677,6.603246158977366,7.419027699166977],"permanent_processing_status":"saved"},"geometry":{"type":"Polygon","coordinates":[[[6.603246158977366,7.240832935448677],[6.603246158977366,7.419027699166977],[6.4235831021534615,7.419027699166977],[6.4235831021534615,7.240832935448677],[6.603246158977366,7.240832935448677]]]},"bbox":[6.4235831021534615,7.240832935448677,6.603246158977366,7.419027699166977]},{"type":"Feature","properties":{"tile_id":21,"candidate":true,"permanent":true,"candidate_path":"data/candidate_change/Kogi_VegLoss_tile_0021.tif","permanent_path":"data/permanent_change/Kogi_PermanentChange_tile_0021.tif","xmin_3857":735070.0,"ymin_3857":808200.0,"xmax_3857":755070.0,"ymax_3857":828200.0,"pixel_size_m":10,"width":2000,"height":2000,"has_candidate":true,"has_permanent":true,"bounds_source":"verified_raster_headers","bounds_wgs84":[6.603246158977366,7.240832935448677,6.78290921580127,7.419027699166977],"permanent_processing_status":"saved"},"geometry":{"type":"Polygon","coordinates":[[[6.78290921580127,7.240832935448677],[6.78290921580127,7.419027699166977],[6.603246158977366,7.419027699166977],[6.603246158977366,7.240832935448677],[6.78290921580127,7.240832935448677]]]},"bbox":[6.603246158977366,7.240832935448677,6.78290921580127,7.419027699166977]},{"type":"Feature","properties":{"tile_id":22,"candidate":true,"permanent":true,"candidate_path":"data/candidate_change/Kogi_VegLoss_tile_0022.tif","permanent_path":"data/permanent_change/Kogi_PermanentChange_tile_0022.tif","xmin_3857":755070.0,"ymin_3857":808200.0,"xmax_3857":775070.0,"ymax_3857":828200.0,"pixel_size_m":10,"width":2000,"height":2000,"has_candidate":true,"has_permanent":true,"bounds_source":"verified_raster_headers","bounds_wgs84":[6.78290921580127,7.240832935448677,6.962572272625175,7.419027699166977],"permanent_processing_status":"saved"},"geometry":{"type":"Polygon","coordinates":[[[6.962572272625175,7.240832935448677],[6.962572272625175,7.419027699166977],[6.78290921580127,7.419027699166977],[6.78290921580127,7.240832935448677],[6.962572272625175,7.240832935448677]]]},"bbox":[6.78290921580127,7.240832935448677,6.962572272625175,7.419027699166977]},{"type":"Feature","properties":{"tile_id":23,"candidate":true,"permanent":true,"candidate_path":"data/candidate_change/Kogi_VegLoss_tile_0023.tif","permanent_path":"data/permanent_change/Kogi_PermanentChange_tile_0023.tif","xmin_3857":775070.0,"ymin_3857":808200.0,"xmax_3857":795070.0,"ymax_3857":828200.0,"pixel_size_m":10,"width":2000,"height":2000,"has_candidate":true,"has_permanent":true,"bounds_source":"verified_raster_headers","bounds_wgs84":[6.962572272625175,7.240832935448677,7.142235329449079,7.419027699166977],"permanent_processing_status":"saved"},"geometry":{"type":"Polygon","coordinates":[[[7.142235329449079,7.240832935448677],[7.142235329449079,7.419027699166977],[6.962572272625175,7.419027699166977],[6.962572272625175,7.240832935448677],[7.142235329449079,7.240832935448677]]]},"bbox":[6.962572272625175,7.240832935448677,7.142235329449079,7.419027699166977]},{"type":"Feature","properties":{"tile_id":24,"candidate":true,"permanent":true,"candidate_path":"data/candidate_change/Kogi_VegLoss_tile_0024.tif","permanent_path":"data/permanent_change/Kogi_PermanentChange_tile_0024.tif","xmin_3857":795070.0,"ymin_3857":808200.0,"xmax_3857":815070.0,"ymax_3857":828200.0,"pixel_size_m":10,"width":2000,"height":2000,"has_candidate":true,"has_permanent":true,"bounds_source":"verified_raster_headers","bounds_wgs84":[7.142235329449079,7.240832935448677,7.3218983862729825,7.419027699166977],"permanent_processing_status":"saved"},"geometry":{"type":"Polygon","coordinates":[[[7.3218983862729825,7.240832935448677],[7.3218983862729825,7.419027699166977],[7.142235329449079,7.419027699166977],[7.142235329449079,7.240832935448677],[7.3218983862729825,7.240832935448677]]]},"bbox":[7.142235329449079,7.240832935448677,7.3218983862729825,7.419027699166977]},{"type":"Feature","properties":{"tile_id":25,"candidate":true,"permanent":true,"candidate_path":"data/candidate_change/Kogi_VegLoss_tile_0025.tif","permanent_path":"data/permanent_change/Kogi_PermanentChange_tile_0025.tif","xmin_3857":815070.0,"ymin_3857":808200.0,"xmax_3857":835070.0,"ymax_3857":828200.0,"pixel_size_m":10,"width":2000,"height":2000,"has_candidate":true,"has_permanent":true,"bounds_source":"verified_raster_headers","bounds_wgs84":[7.3218983862729825,7.240832935448677,7.501561443096887,7.419027699166977],"permanent_processing_status":"saved"},"geometry":{"type":"Polygon","coordinates":[[[7.501561443096887,7.240832935448677],[7.501561443096887,7.419027699166977],[7.3218983862729825,7.419027699166977],[7.3218983862729825,7.240832935448677],[7.501561443096887,7.240832935448677]]]},"bbox":[7.3218983862729825,7.240832935448677,7.501561443096887,7.419027699166977]},{"type":"Feature","properties":{"tile_id":26,"candidate":true,"permanent":true,"candidate_path":"data/candidate_change/Kogi_VegLoss_tile_0026.tif","permanent_path":"data/permanent_change/Kogi_PermanentChange_tile_0026.tif","xmin_3857":835070.0,"ymin_3857":808200.0,"xmax_3857":855070.0,"ymax_3857":828200.0,"pixel_size_m":10,"width":2000,"height":2000,"has_candidate":true,"has_permanent":true,"bounds_source":"verified_raster_headers","bounds_wgs84":[7.501561443096887,7.240832935448677,7.681224499920792,7.419027699166977],"permanent_processing_status":"saved"},"geometry":{"type":"Polygon","coordinates":[[[7.681224499920792,7.240832935448677],[7.681224499920792,7.419027699166977],[7.501561443096887,7.419027699166977],[7.501561443096887,7.240832935448677],[7.681224499920792,7.240832935448677]]]},"bbox":[7.501561443096887,7.240832935448677,7.681224499920792,7.419027699166977]},{"type":"Feature","properties":{"tile_id":27,"candidate":true,"permanent":true,"candidate_path":"data/candidate_change/Kogi_VegLoss_tile_0027.tif","permanent_path":"data/permanent_change/Kogi_PermanentChange_tile_0027.tif","xmin_3857":855070.0,"ymin_3857":808200.0,"xmax_3857":875070.0,"ymax_3857":828200.0,"pixel_size_m":10,"width":2000,"height":2000,"has_candidate":true,"has_permanent":true,"bounds_source":"verified_raster_headers","bounds_wgs84":[7.681224499920792,7.240832935448677,7.8608875567446965,7.419027699166977],"permanent_processing_status":"saved"},"geometry":{"type":"Polygon","coordinates":[[[7.8608875567446965,7.240832935448677],[7.8608875567446965,7.419027699166977],[7.681224499920792,7.419027699166977],[7.681224499920792,7.240832935448677],[7.8608875567446965,7.240832935448677]]]},"bbox":[7.681224499920792,7.240832935448677,7.8608875567446965,7.419027699166977]},{"type":"Feature","properties":{"tile_id":28,"candidate":false,"permanent":false,"candidate_path":null,"permanent_path":null,"xmin_3857":875070,"ymin_3857":808200,"xmax_3857":877370,"ymax_3857":828200,"pixel_size_m":10,"width":230,"height":2000,"has_candidate":false,"has_permanent":false,"bounds_source":"existing_processing_grid_no_saved_raster","bounds_wgs84":[7.8608875567446965,7.24083293544869,7.881548808279445,7.419027699166977],"permanent_processing_status":"no_change"},"geometry":{"type":"Polygon","coordinates":[[[7.8608875567446965,7.24083293544869],[7.881548808279445,7.24083293544869],[7.881548808279445,7.419027699166977],[7.8608875567446965,7.419027699166977],[7.8608875567446965,7.24083293544869]]]},"bbox":[7.8608875567446965,7.24083293544869,7.881548808279445,7.419027699166977]},{"type":"Feature","properties":{"tile_id":29,"candidate":false,"permanent":false,"candidate_path":null,"permanent_path":null,"xmin_3857":655070,"ymin_3857":828200,"xmax_3857":675070,"ymax_3857":848200,"pixel_size_m":10,"width":2000,"height":2000,"has_candidate":false,"has_permanent":false,"bounds_source":"existing_processing_grid_no_saved_raster","bounds_wgs84":[5.884593931681749,7.419027699166977,6.064256988505654,7.59715032686399],"permanent_processing_status":"no_change"},"geometry":{"type":"Polygon","coordinates":[[[5.884593931681749,7.419027699166977],[6.064256988505654,7.419027699166977],[6.064256988505654,7.59715032686399],[5.884593931681749,7.59715032686399],[5.884593931681749,7.419027699166977]]]},"bbox":[5.884593931681749,7.419027699166977,6.064256988505654,7.59715032686399]},{"type":"Feature","properties":{"tile_id":30,"candidate":true,"permanent":true,"candidate_path":"data/candidate_change/Kogi_VegLoss_tile_0030.tif","permanent_path":"data/permanent_change/Kogi_PermanentChange_tile_0030.tif","xmin_3857":675070.0,"ymin_3857":828200.0,"xmax_3857":695070.0,"ymax_3857":848200.0,"pixel_size_m":10,"width":2000,"height":2000,"has_candidate":true,"has_permanent":true,"bounds_source":"verified_raster_headers","bounds_wgs84":[6.064256988505654,7.419027699166977,6.243920045329557,7.597150326863977],"permanent_processing_status":"saved"},"geometry":{"type":"Polygon","coordinates":[[[6.243920045329557,7.419027699166977],[6.243920045329557,7.597150326863977],[6.064256988505654,7.597150326863977],[6.064256988505654,7.419027699166977],[6.243920045329557,7.419027699166977]]]},"bbox":[6.064256988505654,7.419027699166977,6.243920045329557,7.597150326863977]},{"type":"Feature","properties":{"tile_id":31,"candidate":true,"permanent":true,"candidate_path":"data/candidate_change/Kogi_VegLoss_tile_0031.tif","permanent_path":"data/permanent_change/Kogi_PermanentChange_tile_0031.tif","xmin_3857":695070.0,"ymin_3857":828200.0,"xmax_3857":715070.0,"ymax_3857":848200.0,"pixel_size_m":10,"width":2000,"height":2000,"has_candidate":true,"has_permanent":true,"bounds_source":"verified_raster_headers","bounds_wgs84":[6.243920045329557,7.419027699166977,6.4235831021534615,7.597150326863977],"permanent_processing_status":"saved"},"geometry":{"type":"Polygon","coordinates":[[[6.4235831021534615,7.419027699166977],[6.4235831021534615,7.597150326863977],[6.243920045329557,7.597150326863977],[6.243920045329557,7.419027699166977],[6.4235831021534615,7.419027699166977]]]},"bbox":[6.243920045329557,7.419027699166977,6.4235831021534615,7.597150326863977]},{"type":"Feature","properties":{"tile_id":32,"candidate":true,"permanent":true,"candidate_path":"data/candidate_change/Kogi_VegLoss_tile_0032.tif","permanent_path":"data/permanent_change/Kogi_PermanentChange_tile_0032.tif","xmin_3857":715070.0,"ymin_3857":828200.0,"xmax_3857":735070.0,"ymax_3857":848200.0,"pixel_size_m":10,"width":2000,"height":2000,"has_candidate":true,"has_permanent":true,"bounds_source":"verified_raster_headers","bounds_wgs84":[6.4235831021534615,7.419027699166977,6.603246158977366,7.597150326863977],"permanent_processing_status":"saved"},"geometry":{"type":"Polygon","coordinates":[[[6.603246158977366,7.419027699166977],[6.603246158977366,7.597150326863977],[6.4235831021534615,7.597150326863977],[6.4235831021534615,7.419027699166977],[6.603246158977366,7.419027699166977]]]},"bbox":[6.4235831021534615,7.419027699166977,6.603246158977366,7.597150326863977]},{"type":"Feature","properties":{"tile_id":33,"candidate":true,"permanent":true,"candidate_path":"data/candidate_change/Kogi_VegLoss_tile_0033.tif","permanent_path":"data/permanent_change/Kogi_PermanentChange_tile_0033.tif","xmin_3857":735070.0,"ymin_3857":828200.0,"xmax_3857":755070.0,"ymax_3857":848200.0,"pixel_size_m":10,"width":2000,"height":2000,"has_candidate":true,"has_permanent":true,"bounds_source":"verified_raster_headers","bounds_wgs84":[6.603246158977366,7.419027699166977,6.78290921580127,7.597150326863977],"permanent_processing_status":"saved"},"geometry":{"type":"Polygon","coordinates":[[[6.78290921580127,7.419027699166977],[6.78290921580127,7.597150326863977],[6.603246158977366,7.597150326863977],[6.603246158977366,7.419027699166977],[6.78290921580127,7.419027699166977]]]},"bbox":[6.603246158977366,7.419027699166977,6.78290921580127,7.597150326863977]},{"type":"Feature","properties":{"tile_id":34,"candidate":true,"permanent":true,"candidate_path":"data/candidate_change/Kogi_VegLoss_tile_0034.tif","permanent_path":"data/permanent_change/Kogi_PermanentChange_tile_0034.tif","xmin_3857":755070.0,"ymin_3857":828200.0,"xmax_3857":775070.0,"ymax_3857":848200.0,"pixel_size_m":10,"width":2000,"height":2000,"has_candidate":true,"has_permanent":true,"bounds_source":"verified_raster_headers","bounds_wgs84":[6.78290921580127,7.419027699166977,6.962572272625175,7.597150326863977],"permanent_processing_status":"saved"},"geometry":{"type":"Polygon","coordinates":[[[6.962572272625175,7.419027699166977],[6.962572272625175,7.597150326863977],[6.78290921580127,7.597150326863977],[6.78290921580127,7.419027699166977],[6.962572272625175,7.419027699166977]]]},"bbox":[6.78290921580127,7.419027699166977,6.962572272625175,7.597150326863977]},{"type":"Feature","properties":{"tile_id":35,"candidate":true,"permanent":true,"candidate_path":"data/candidate_change/Kogi_VegLoss_tile_0035.tif","permanent_path":"data/permanent_change/Kogi_PermanentChange_tile_0035.tif","xmin_3857":775070.0,"ymin_3857":828200.0,"xmax_3857":795070.0,"ymax_3857":848200.0,"pixel_size_m":10,"width":2000,"height":2000,"has_candidate":true,"has_permanent":true,"bounds_source":"verified_raster_headers","bounds_wgs84":[6.962572272625175,7.419027699166977,7.142235329449079,7.597150326863977],"permanent_processing_status":"saved"},"geometry":{"type":"Polygon","coordinates":[[[7.142235329449079,7.419027699166977],[7.142235329449079,7.597150326863977],[6.962572272625175,7.597150326863977],[6.962572272625175,7.419027699166977],[7.142235329449079,7.419027699166977]]]},"bbox":[6.962572272625175,7.419027699166977,7.142235329449079,7.597150326863977]},{"type":"Feature","properties":{"tile_id":36,"candidate":true,"permanent":true,"candidate_path":"data/candidate_change/Kogi_VegLoss_tile_0036.tif","permanent_path":"data/permanent_change/Kogi_PermanentChange_tile_0036.tif","xmin_3857":795070.0,"ymin_3857":828200.0,"xmax_3857":815070.0,"ymax_3857":848200.0,"pixel_size_m":10,"width":2000,"height":2000,"has_candidate":true,"has_permanent":true,"bounds_source":"verified_raster_headers","bounds_wgs84":[7.142235329449079,7.419027699166977,7.3218983862729825,7.597150326863977],"permanent_processing_status":"saved"},"geometry":{"type":"Polygon","coordinates":[[[7.3218983862729825,7.419027699166977],[7.3218983862729825,7.597150326863977],[7.142235329449079,7.597150326863977],[7.142235329449079,7.419027699166977],[7.3218983862729825,7.419027699166977]]]},"bbox":[7.142235329449079,7.419027699166977,7.3218983862729825,7.597150326863977]},{"type":"Feature","properties":{"tile_id":37,"candidate":true,"permanent":true,"candidate_path":"data/candidate_change/Kogi_VegLoss_tile_0037.tif","permanent_path":"data/permanent_change/Kogi_PermanentChange_tile_0037.tif","xmin_3857":815070.0,"ymin_3857":828200.0,"xmax_3857":835070.0,"ymax_3857":848200.0,"pixel_size_m":10,"width":2000,"height":2000,"has_candidate":true,"has_permanent":true,"bounds_source":"verified_raster_headers","bounds_wgs84":[7.3218983862729825,7.419027699166977,7.501561443096887,7.597150326863977],"permanent_processing_status":"saved"},"geometry":{"type":"Polygon","coordinates":[[[7.501561443096887,7.419027699166977],[7.501561443096887,7.597150326863977],[7.3218983862729825,7.597150326863977],[7.3218983862729825,7.419027699166977],[7.501561443096887,7.419027699166977]]]},"bbox":[7.3218983862729825,7.419027699166977,7.501561443096887,7.597150326863977]},{"type":"Feature","properties":{"tile_id":38,"candidate":true,"permanent":true,"candidate_path":"data/candidate_change/Kogi_VegLoss_tile_0038.tif","permanent_path":"data/permanent_change/Kogi_PermanentChange_tile_0038.tif","xmin_3857":835070.0,"ymin_3857":828200.0,"xmax_3857":855070.0,"ymax_3857":848200.0,"pixel_size_m":10,"width":2000,"height":2000,"has_candidate":true,"has_permanent":true,"bounds_source":"verified_raster_headers","bounds_wgs84":[7.501561443096887,7.419027699166977,7.681224499920792,7.597150326863977],"permanent_processing_status":"saved"},"geometry":{"type":"Polygon","coordinates":[[[7.681224499920792,7.419027699166977],[7.681224499920792,7.597150326863977],[7.501561443096887,7.597150326863977],[7.501561443096887,7.419027699166977],[7.681224499920792,7.419027699166977]]]},"bbox":[7.501561443096887,7.419027699166977,7.681224499920792,7.597150326863977]},{"type":"Feature","properties":{"tile_id":39,"candidate":true,"permanent":true,"candidate_path":"data/candidate_change/Kogi_VegLoss_tile_0039.tif","permanent_path":"data/permanent_change/Kogi_PermanentChange_tile_0039.tif","xmin_3857":855070.0,"ymin_3857":828200.0,"xmax_3857":875070.0,"ymax_3857":848200.0,"pixel_size_m":10,"width":2000,"height":2000,"has_candidate":true,"has_permanent":true,"bounds_source":"verified_raster_headers","bounds_wgs84":[7.681224499920792,7.419027699166977,7.8608875567446965,7.597150326863977],"permanent_processing_status":"saved"},"geometry":{"type":"Polygon","coordinates":[[[7.8608875567446965,7.419027699166977],[7.8608875567446965,7.597150326863977],[7.681224499920792,7.597150326863977],[7.681224499920792,7.419027699166977],[7.8608875567446965,7.419027699166977]]]},"bbox":[7.681224499920792,7.419027699166977,7.8608875567446965,7.597150326863977]},{"type":"Feature","properties":{"tile_id":40,"candidate":false,"permanent":false,"candidate_path":null,"permanent_path":null,"xmin_3857":875070,"ymin_3857":828200,"xmax_3857":877370,"ymax_3857":848200,"pixel_size_m":10,"width":230,"height":2000,"has_candidate":false,"has_permanent":false,"bounds_source":"existing_processing_grid_no_saved_raster","bounds_wgs84":[7.8608875567446965,7.419027699166977,7.881548808279445,7.59715032686399],"permanent_processing_status":"no_change"},"geometry":{"type":"Polygon","coordinates":[[[7.8608875567446965,7.419027699166977],[7.881548808279445,7.419027699166977],[7.881548808279445,7.59715032686399],[7.8608875567446965,7.59715032686399],[7.8608875567446965,7.419027699166977]]]},"bbox":[7.8608875567446965,7.419027699166977,7.881548808279445,7.59715032686399]},{"type":"Feature","properties":{"tile_id":41,"candidate":true,"permanent":true,"candidate_path":"data/candidate_change/Kogi_VegLoss_tile_0041.tif","permanent_path":"data/permanent_change/Kogi_PermanentChange_tile_0041.tif","xmin_3857":635070.0,"ymin_3857":848200.0,"xmax_3857":655070.0,"ymax_3857":868200.0,"pixel_size_m":10,"width":2000,"height":2000,"has_candidate":true,"has_permanent":true,"bounds_source":"verified_raster_headers","bounds_wgs84":[5.704930874857844,7.597150326863977,5.884593931681748,7.775199126930922],"permanent_processing_status":"saved"},"geometry":{"type":"Polygon","coordinates":[[[5.884593931681748,7.597150326863977],[5.884593931681748,7.775199126930922],[5.704930874857844,7.775199126930922],[5.704930874857844,7.597150326863977],[5.884593931681748,7.597150326863977]]]},"bbox":[5.704930874857844,7.597150326863977,5.884593931681748,7.775199126930922]},{"type":"Feature","properties":{"tile_id":42,"candidate":true,"permanent":true,"candidate_path":"data/candidate_change/Kogi_VegLoss_tile_0042.tif","permanent_path":"data/permanent_change/Kogi_PermanentChange_tile_0042.tif","xmin_3857":655070.0,"ymin_3857":848200.0,"xmax_3857":675070.0,"ymax_3857":868200.0,"pixel_size_m":10,"width":2000,"height":2000,"has_candidate":true,"has_permanent":true,"bounds_source":"verified_raster_headers","bounds_wgs84":[5.884593931681748,7.597150326863977,6.064256988505654,7.775199126930922],"permanent_processing_status":"saved"},"geometry":{"type":"Polygon","coordinates":[[[6.064256988505654,7.597150326863977],[6.064256988505654,7.775199126930922],[5.884593931681748,7.775199126930922],[5.884593931681748,7.597150326863977],[6.064256988505654,7.597150326863977]]]},"bbox":[5.884593931681748,7.597150326863977,6.064256988505654,7.775199126930922]},{"type":"Feature","properties":{"tile_id":43,"candidate":true,"permanent":true,"candidate_path":"data/candidate_change/Kogi_VegLoss_tile_0043.tif","permanent_path":"data/permanent_change/Kogi_PermanentChange_tile_0043.tif","xmin_3857":675070.0,"ymin_3857":848200.0,"xmax_3857":695070.0,"ymax_3857":868200.0,"pixel_size_m":10,"width":2000,"height":2000,"has_candidate":true,"has_permanent":true,"bounds_source":"verified_raster_headers","bounds_wgs84":[6.064256988505654,7.597150326863977,6.243920045329557,7.775199126930922],"permanent_processing_status":"saved"},"geometry":{"type":"Polygon","coordinates":[[[6.243920045329557,7.597150326863977],[6.243920045329557,7.775199126930922],[6.064256988505654,7.775199126930922],[6.064256988505654,7.597150326863977],[6.243920045329557,7.597150326863977]]]},"bbox":[6.064256988505654,7.597150326863977,6.243920045329557,7.775199126930922]},{"type":"Feature","properties":{"tile_id":44,"candidate":true,"permanent":true,"candidate_path":"data/candidate_change/Kogi_VegLoss_tile_0044.tif","permanent_path":"data/permanent_change/Kogi_PermanentChange_tile_0044.tif","xmin_3857":695070.0,"ymin_3857":848200.0,"xmax_3857":715070.0,"ymax_3857":868200.0,"pixel_size_m":10,"width":2000,"height":2000,"has_candidate":true,"has_permanent":true,"bounds_source":"verified_raster_headers","bounds_wgs84":[6.243920045329557,7.597150326863977,6.4235831021534615,7.775199126930922],"permanent_processing_status":"saved"},"geometry":{"type":"Polygon","coordinates":[[[6.4235831021534615,7.597150326863977],[6.4235831021534615,7.775199126930922],[6.243920045329557,7.775199126930922],[6.243920045329557,7.597150326863977],[6.4235831021534615,7.597150326863977]]]},"bbox":[6.243920045329557,7.597150326863977,6.4235831021534615,7.775199126930922]},{"type":"Feature","properties":{"tile_id":45,"candidate":true,"permanent":true,"candidate_path":"data/candidate_change/Kogi_VegLoss_tile_0045.tif","permanent_path":"data/permanent_change/Kogi_PermanentChange_tile_0045.tif","xmin_3857":715070.0,"ymin_3857":848200.0,"xmax_3857":735070.0,"ymax_3857":868200.0,"pixel_size_m":10,"width":2000,"height":2000,"has_candidate":true,"has_permanent":true,"bounds_source":"verified_raster_headers","bounds_wgs84":[6.4235831021534615,7.597150326863977,6.603246158977366,7.775199126930922],"permanent_processing_status":"saved"},"geometry":{"type":"Polygon","coordinates":[[[6.603246158977366,7.597150326863977],[6.603246158977366,7.775199126930922],[6.4235831021534615,7.775199126930922],[6.4235831021534615,7.597150326863977],[6.603246158977366,7.597150326863977]]]},"bbox":[6.4235831021534615,7.597150326863977,6.603246158977366,7.775199126930922]},{"type":"Feature","properties":{"tile_id":46,"candidate":true,"permanent":true,"candidate_path":"data/candidate_change/Kogi_VegLoss_tile_0046.tif","permanent_path":"data/permanent_change/Kogi_PermanentChange_tile_0046.tif","xmin_3857":735070.0,"ymin_3857":848200.0,"xmax_3857":755070.0,"ymax_3857":868200.0,"pixel_size_m":10,"width":2000,"height":2000,"has_candidate":true,"has_permanent":true,"bounds_source":"verified_raster_headers","bounds_wgs84":[6.603246158977366,7.597150326863977,6.78290921580127,7.775199126930922],"permanent_processing_status":"saved"},"geometry":{"type":"Polygon","coordinates":[[[6.78290921580127,7.597150326863977],[6.78290921580127,7.775199126930922],[6.603246158977366,7.775199126930922],[6.603246158977366,7.597150326863977],[6.78290921580127,7.597150326863977]]]},"bbox":[6.603246158977366,7.597150326863977,6.78290921580127,7.775199126930922]},{"type":"Feature","properties":{"tile_id":47,"candidate":true,"permanent":true,"candidate_path":"data/candidate_change/Kogi_VegLoss_tile_0047.tif","permanent_path":"data/permanent_change/Kogi_PermanentChange_tile_0047.tif","xmin_3857":755070.0,"ymin_3857":848200.0,"xmax_3857":775070.0,"ymax_3857":868200.0,"pixel_size_m":10,"width":2000,"height":2000,"has_candidate":true,"has_permanent":true,"bounds_source":"verified_raster_headers","bounds_wgs84":[6.78290921580127,7.597150326863977,6.962572272625175,7.775199126930922],"permanent_processing_status":"saved"},"geometry":{"type":"Polygon","coordinates":[[[6.962572272625175,7.597150326863977],[6.962572272625175,7.775199126930922],[6.78290921580127,7.775199126930922],[6.78290921580127,7.597150326863977],[6.962572272625175,7.597150326863977]]]},"bbox":[6.78290921580127,7.597150326863977,6.962572272625175,7.775199126930922]},{"type":"Feature","properties":{"tile_id":48,"candidate":true,"permanent":true,"candidate_path":"data/candidate_change/Kogi_VegLoss_tile_0048.tif","permanent_path":"data/permanent_change/Kogi_PermanentChange_tile_0048.tif","xmin_3857":775070.0,"ymin_3857":848200.0,"xmax_3857":795070.0,"ymax_3857":868200.0,"pixel_size_m":10,"width":2000,"height":2000,"has_candidate":true,"has_permanent":true,"bounds_source":"verified_raster_headers","bounds_wgs84":[6.962572272625175,7.597150326863977,7.142235329449079,7.775199126930922],"permanent_processing_status":"saved"},"geometry":{"type":"Polygon","coordinates":[[[7.142235329449079,7.597150326863977],[7.142235329449079,7.775199126930922],[6.962572272625175,7.775199126930922],[6.962572272625175,7.597150326863977],[7.142235329449079,7.597150326863977]]]},"bbox":[6.962572272625175,7.597150326863977,7.142235329449079,7.775199126930922]},{"type":"Feature","properties":{"tile_id":49,"candidate":true,"permanent":true,"candidate_path":"data/candidate_change/Kogi_VegLoss_tile_0049.tif","permanent_path":"data/permanent_change/Kogi_PermanentChange_tile_0049.tif","xmin_3857":795070.0,"ymin_3857":848200.0,"xmax_3857":815070.0,"ymax_3857":868200.0,"pixel_size_m":10,"width":2000,"height":2000,"has_candidate":true,"has_permanent":true,"bounds_source":"verified_raster_headers","bounds_wgs84":[7.142235329449079,7.597150326863977,7.3218983862729825,7.775199126930922],"permanent_processing_status":"saved"},"geometry":{"type":"Polygon","coordinates":[[[7.3218983862729825,7.597150326863977],[7.3218983862729825,7.775199126930922],[7.142235329449079,7.775199126930922],[7.142235329449079,7.597150326863977],[7.3218983862729825,7.597150326863977]]]},"bbox":[7.142235329449079,7.597150326863977,7.3218983862729825,7.775199126930922]},{"type":"Feature","properties":{"tile_id":50,"candidate":true,"permanent":true,"candidate_path":"data/candidate_change/Kogi_VegLoss_tile_0050.tif","permanent_path":"data/permanent_change/Kogi_PermanentChange_tile_0050.tif","xmin_3857":815070.0,"ymin_3857":848200.0,"xmax_3857":835070.0,"ymax_3857":868200.0,"pixel_size_m":10,"width":2000,"height":2000,"has_candidate":true,"has_permanent":true,"bounds_source":"verified_raster_headers","bounds_wgs84":[7.3218983862729825,7.597150326863977,7.501561443096887,7.775199126930922],"permanent_processing_status":"saved"},"geometry":{"type":"Polygon","coordinates":[[[7.501561443096887,7.597150326863977],[7.501561443096887,7.775199126930922],[7.3218983862729825,7.775199126930922],[7.3218983862729825,7.597150326863977],[7.501561443096887,7.597150326863977]]]},"bbox":[7.3218983862729825,7.597150326863977,7.501561443096887,7.775199126930922]},{"type":"Feature","properties":{"tile_id":51,"candidate":true,"permanent":true,"candidate_path":"data/candidate_change/Kogi_VegLoss_tile_0051.tif","permanent_path":"data/permanent_change/Kogi_PermanentChange_tile_0051.tif","xmin_3857":835070.0,"ymin_3857":848200.0,"xmax_3857":855070.0,"ymax_3857":868200.0,"pixel_size_m":10,"width":2000,"height":2000,"has_candidate":true,"has_permanent":true,"bounds_source":"verified_raster_headers","bounds_wgs84":[7.501561443096887,7.597150326863977,7.681224499920792,7.775199126930922],"permanent_processing_status":"saved"},"geometry":{"type":"Polygon","coordinates":[[[7.681224499920792,7.597150326863977],[7.681224499920792,7.775199126930922],[7.501561443096887,7.775199126930922],[7.501561443096887,7.597150326863977],[7.681224499920792,7.597150326863977]]]},"bbox":[7.501561443096887,7.597150326863977,7.681224499920792,7.775199126930922]},{"type":"Feature","properties":{"tile_id":52,"candidate":true,"permanent":true,"candidate_path":"data/candidate_change/Kogi_VegLoss_tile_0052.tif","permanent_path":"data/permanent_change/Kogi_PermanentChange_tile_0052.tif","xmin_3857":855070.0,"ymin_3857":848200.0,"xmax_3857":875070.0,"ymax_3857":868200.0,"pixel_size_m":10,"width":2000,"height":2000,"has_candidate":true,"has_permanent":true,"bounds_source":"verified_raster_headers","bounds_wgs84":[7.681224499920792,7.597150326863977,7.8608875567446965,7.775199126930922],"permanent_processing_status":"saved"},"geometry":{"type":"Polygon","coordinates":[[[7.8608875567446965,7.597150326863977],[7.8608875567446965,7.775199126930922],[7.681224499920792,7.775199126930922],[7.681224499920792,7.597150326863977],[7.8608875567446965,7.597150326863977]]]},"bbox":[7.681224499920792,7.597150326863977,7.8608875567446965,7.775199126930922]},{"type":"Feature","properties":{"tile_id":53,"candidate":true,"permanent":true,"candidate_path":"data/candidate_change/Kogi_VegLoss_tile_0053.tif","permanent_path":"data/permanent_change/Kogi_PermanentChange_tile_0053.tif","xmin_3857":615070.0,"ymin_3857":868200.0,"xmax_3857":635070.0,"ymax_3857":888200.0,"pixel_size_m":10,"width":2000,"height":2000,"has_candidate":true,"has_permanent":true,"bounds_source":"verified_raster_headers","bounds_wgs84":[5.5252678180339405,7.775199126930922,5.704930874857844,7.953172411312448],"permanent_processing_status":"saved"},"geometry":{"type":"Polygon","coordinates":[[[5.704930874857844,7.775199126930922],[5.704930874857844,7.953172411312448],[5.5252678180339405,7.953172411312448],[5.5252678180339405,7.775199126930922],[5.704930874857844,7.775199126930922]]]},"bbox":[5.5252678180339405,7.775199126930922,5.704930874857844,7.953172411312448]},{"type":"Feature","properties":{"tile_id":54,"candidate":true,"permanent":true,"candidate_path":"data/candidate_change/Kogi_VegLoss_tile_0054.tif","permanent_path":"data/permanent_change/Kogi_PermanentChange_tile_0054.tif","xmin_3857":635070.0,"ymin_3857":868200.0,"xmax_3857":655070.0,"ymax_3857":888200.0,"pixel_size_m":10,"width":2000,"height":2000,"has_candidate":true,"has_permanent":true,"bounds_source":"verified_raster_headers","bounds_wgs84":[5.704930874857844,7.775199126930922,5.884593931681748,7.953172411312448],"permanent_processing_status":"saved"},"geometry":{"type":"Polygon","coordinates":[[[5.884593931681748,7.775199126930922],[5.884593931681748,7.953172411312448],[5.704930874857844,7.953172411312448],[5.704930874857844,7.775199126930922],[5.884593931681748,7.775199126930922]]]},"bbox":[5.704930874857844,7.775199126930922,5.884593931681748,7.953172411312448]},{"type":"Feature","properties":{"tile_id":55,"candidate":true,"permanent":true,"candidate_path":"data/candidate_change/Kogi_VegLoss_tile_0055.tif","permanent_path":"data/permanent_change/Kogi_PermanentChange_tile_0055.tif","xmin_3857":655070.0,"ymin_3857":868200.0,"xmax_3857":675070.0,"ymax_3857":888200.0,"pixel_size_m":10,"width":2000,"height":2000,"has_candidate":true,"has_permanent":true,"bounds_source":"verified_raster_headers","bounds_wgs84":[5.884593931681748,7.775199126930922,6.064256988505654,7.953172411312448],"permanent_processing_status":"saved"},"geometry":{"type":"Polygon","coordinates":[[[6.064256988505654,7.775199126930922],[6.064256988505654,7.953172411312448],[5.884593931681748,7.953172411312448],[5.884593931681748,7.775199126930922],[6.064256988505654,7.775199126930922]]]},"bbox":[5.884593931681748,7.775199126930922,6.064256988505654,7.953172411312448]},{"type":"Feature","properties":{"tile_id":56,"candidate":true,"permanent":true,"candidate_path":"data/candidate_change/Kogi_VegLoss_tile_0056.tif","permanent_path":"data/permanent_change/Kogi_PermanentChange_tile_0056.tif","xmin_3857":675070.0,"ymin_3857":868200.0,"xmax_3857":695070.0,"ymax_3857":888200.0,"pixel_size_m":10,"width":2000,"height":2000,"has_candidate":true,"has_permanent":true,"bounds_source":"verified_raster_headers","bounds_wgs84":[6.064256988505654,7.775199126930922,6.243920045329557,7.953172411312448],"permanent_processing_status":"saved"},"geometry":{"type":"Polygon","coordinates":[[[6.243920045329557,7.775199126930922],[6.243920045329557,7.953172411312448],[6.064256988505654,7.953172411312448],[6.064256988505654,7.775199126930922],[6.243920045329557,7.775199126930922]]]},"bbox":[6.064256988505654,7.775199126930922,6.243920045329557,7.953172411312448]},{"type":"Feature","properties":{"tile_id":57,"candidate":true,"permanent":true,"candidate_path":"data/candidate_change/Kogi_VegLoss_tile_0057.tif","permanent_path":"data/permanent_change/Kogi_PermanentChange_tile_0057.tif","xmin_3857":695070.0,"ymin_3857":868200.0,"xmax_3857":715070.0,"ymax_3857":888200.0,"pixel_size_m":10,"width":2000,"height":2000,"has_candidate":true,"has_permanent":true,"bounds_source":"verified_raster_headers","bounds_wgs84":[6.243920045329557,7.775199126930922,6.4235831021534615,7.953172411312448],"permanent_processing_status":"saved"},"geometry":{"type":"Polygon","coordinates":[[[6.4235831021534615,7.775199126930922],[6.4235831021534615,7.953172411312448],[6.243920045329557,7.953172411312448],[6.243920045329557,7.775199126930922],[6.4235831021534615,7.775199126930922]]]},"bbox":[6.243920045329557,7.775199126930922,6.4235831021534615,7.953172411312448]},{"type":"Feature","properties":{"tile_id":58,"candidate":true,"permanent":true,"candidate_path":"data/candidate_change/Kogi_VegLoss_tile_0058.tif","permanent_path":"data/permanent_change/Kogi_PermanentChange_tile_0058.tif","xmin_3857":715070.0,"ymin_3857":868200.0,"xmax_3857":735070.0,"ymax_3857":888200.0,"pixel_size_m":10,"width":2000,"height":2000,"has_candidate":true,"has_permanent":true,"bounds_source":"verified_raster_headers","bounds_wgs84":[6.4235831021534615,7.775199126930922,6.603246158977366,7.953172411312448],"permanent_processing_status":"saved"},"geometry":{"type":"Polygon","coordinates":[[[6.603246158977366,7.775199126930922],[6.603246158977366,7.953172411312448],[6.4235831021534615,7.953172411312448],[6.4235831021534615,7.775199126930922],[6.603246158977366,7.775199126930922]]]},"bbox":[6.4235831021534615,7.775199126930922,6.603246158977366,7.953172411312448]},{"type":"Feature","properties":{"tile_id":59,"candidate":true,"permanent":true,"candidate_path":"data/candidate_change/Kogi_VegLoss_tile_0059.tif","permanent_path":"data/permanent_change/Kogi_PermanentChange_tile_0059.tif","xmin_3857":735070.0,"ymin_3857":868200.0,"xmax_3857":755070.0,"ymax_3857":888200.0,"pixel_size_m":10,"width":2000,"height":2000,"has_candidate":true,"has_permanent":true,"bounds_source":"verified_raster_headers","bounds_wgs84":[6.603246158977366,7.775199126930922,6.78290921580127,7.953172411312448],"permanent_processing_status":"saved"},"geometry":{"type":"Polygon","coordinates":[[[6.78290921580127,7.775199126930922],[6.78290921580127,7.953172411312448],[6.603246158977366,7.953172411312448],[6.603246158977366,7.775199126930922],[6.78290921580127,7.775199126930922]]]},"bbox":[6.603246158977366,7.775199126930922,6.78290921580127,7.953172411312448]},{"type":"Feature","properties":{"tile_id":60,"candidate":true,"permanent":true,"candidate_path":"data/candidate_change/Kogi_VegLoss_tile_0060.tif","permanent_path":"data/permanent_change/Kogi_PermanentChange_tile_0060.tif","xmin_3857":755070.0,"ymin_3857":868200.0,"xmax_3857":775070.0,"ymax_3857":888200.0,"pixel_size_m":10,"width":2000,"height":2000,"has_candidate":true,"has_permanent":true,"bounds_source":"verified_raster_headers","bounds_wgs84":[6.78290921580127,7.775199126930922,6.962572272625175,7.953172411312448],"permanent_processing_status":"saved"},"geometry":{"type":"Polygon","coordinates":[[[6.962572272625175,7.775199126930922],[6.962572272625175,7.953172411312448],[6.78290921580127,7.953172411312448],[6.78290921580127,7.775199126930922],[6.962572272625175,7.775199126930922]]]},"bbox":[6.78290921580127,7.775199126930922,6.962572272625175,7.953172411312448]},{"type":"Feature","properties":{"tile_id":61,"candidate":true,"permanent":true,"candidate_path":"data/candidate_change/Kogi_VegLoss_tile_0061.tif","permanent_path":"data/permanent_change/Kogi_PermanentChange_tile_0061.tif","xmin_3857":775070.0,"ymin_3857":868200.0,"xmax_3857":795070.0,"ymax_3857":888200.0,"pixel_size_m":10,"width":2000,"height":2000,"has_candidate":true,"has_permanent":true,"bounds_source":"verified_raster_headers","bounds_wgs84":[6.962572272625175,7.775199126930922,7.142235329449079,7.953172411312448],"permanent_processing_status":"saved"},"geometry":{"type":"Polygon","coordinates":[[[7.142235329449079,7.775199126930922],[7.142235329449079,7.953172411312448],[6.962572272625175,7.953172411312448],[6.962572272625175,7.775199126930922],[7.142235329449079,7.775199126930922]]]},"bbox":[6.962572272625175,7.775199126930922,7.142235329449079,7.953172411312448]},{"type":"Feature","properties":{"tile_id":62,"candidate":true,"permanent":true,"candidate_path":"data/candidate_change/Kogi_VegLoss_tile_0062.tif","permanent_path":"data/permanent_change/Kogi_PermanentChange_tile_0062.tif","xmin_3857":795070.0,"ymin_3857":868200.0,"xmax_3857":815070.0,"ymax_3857":888200.0,"pixel_size_m":10,"width":2000,"height":2000,"has_candidate":true,"has_permanent":true,"bounds_source":"verified_raster_headers","bounds_wgs84":[7.142235329449079,7.775199126930922,7.3218983862729825,7.953172411312448],"permanent_processing_status":"saved"},"geometry":{"type":"Polygon","coordinates":[[[7.3218983862729825,7.775199126930922],[7.3218983862729825,7.953172411312448],[7.142235329449079,7.953172411312448],[7.142235329449079,7.775199126930922],[7.3218983862729825,7.775199126930922]]]},"bbox":[7.142235329449079,7.775199126930922,7.3218983862729825,7.953172411312448]},{"type":"Feature","properties":{"tile_id":63,"candidate":true,"permanent":true,"candidate_path":"data/candidate_change/Kogi_VegLoss_tile_0063.tif","permanent_path":"data/permanent_change/Kogi_PermanentChange_tile_0063.tif","xmin_3857":815070.0,"ymin_3857":868200.0,"xmax_3857":835070.0,"ymax_3857":888200.0,"pixel_size_m":10,"width":2000,"height":2000,"has_candidate":true,"has_permanent":true,"bounds_source":"verified_raster_headers","bounds_wgs84":[7.3218983862729825,7.775199126930922,7.501561443096887,7.953172411312448],"permanent_processing_status":"saved"},"geometry":{"type":"Polygon","coordinates":[[[7.501561443096887,7.775199126930922],[7.501561443096887,7.953172411312448],[7.3218983862729825,7.953172411312448],[7.3218983862729825,7.775199126930922],[7.501561443096887,7.775199126930922]]]},"bbox":[7.3218983862729825,7.775199126930922,7.501561443096887,7.953172411312448]},{"type":"Feature","properties":{"tile_id":64,"candidate":true,"permanent":true,"candidate_path":"data/candidate_change/Kogi_VegLoss_tile_0064.tif","permanent_path":"data/permanent_change/Kogi_PermanentChange_tile_0064.tif","xmin_3857":835070.0,"ymin_3857":868200.0,"xmax_3857":855070.0,"ymax_3857":888200.0,"pixel_size_m":10,"width":2000,"height":2000,"has_candidate":true,"has_permanent":true,"bounds_source":"verified_raster_headers","bounds_wgs84":[7.501561443096887,7.775199126930922,7.681224499920792,7.953172411312448],"permanent_processing_status":"saved"},"geometry":{"type":"Polygon","coordinates":[[[7.681224499920792,7.775199126930922],[7.681224499920792,7.953172411312448],[7.501561443096887,7.953172411312448],[7.501561443096887,7.775199126930922],[7.681224499920792,7.775199126930922]]]},"bbox":[7.501561443096887,7.775199126930922,7.681224499920792,7.953172411312448]},{"type":"Feature","properties":{"tile_id":65,"candidate":true,"permanent":true,"candidate_path":"data/candidate_change/Kogi_VegLoss_tile_0065.tif","permanent_path":"data/permanent_change/Kogi_PermanentChange_tile_0065.tif","xmin_3857":855070.0,"ymin_3857":868200.0,"xmax_3857":875070.0,"ymax_3857":888200.0,"pixel_size_m":10,"width":2000,"height":2000,"has_candidate":true,"has_permanent":true,"bounds_source":"verified_raster_headers","bounds_wgs84":[7.681224499920792,7.775199126930922,7.8608875567446965,7.953172411312448],"permanent_processing_status":"saved"},"geometry":{"type":"Polygon","coordinates":[[[7.8608875567446965,7.775199126930922],[7.8608875567446965,7.953172411312448],[7.681224499920792,7.953172411312448],[7.681224499920792,7.775199126930922],[7.8608875567446965,7.775199126930922]]]},"bbox":[7.681224499920792,7.775199126930922,7.8608875567446965,7.953172411312448]},{"type":"Feature","properties":{"tile_id":66,"candidate":false,"permanent":false,"candidate_path":null,"permanent_path":null,"xmin_3857":595070,"ymin_3857":888200,"xmax_3857":615070,"ymax_3857":908200,"pixel_size_m":10,"width":2000,"height":2000,"has_candidate":false,"has_permanent":false,"bounds_source":"existing_processing_grid_no_saved_raster","bounds_wgs84":[5.345604761210035,7.953172411312461,5.5252678180339405,8.13106849558425],"permanent_processing_status":"no_change"},"geometry":{"type":"Polygon","coordinates":[[[5.345604761210035,7.953172411312461],[5.5252678180339405,7.953172411312461],[5.5252678180339405,8.13106849558425],[5.345604761210035,8.13106849558425],[5.345604761210035,7.953172411312461]]]},"bbox":[5.345604761210035,7.953172411312461,5.5252678180339405,8.13106849558425]},{"type":"Feature","properties":{"tile_id":67,"candidate":true,"permanent":true,"candidate_path":"data/candidate_change/Kogi_VegLoss_tile_0067.tif","permanent_path":"data/permanent_change/Kogi_PermanentChange_tile_0067.tif","xmin_3857":615070.0,"ymin_3857":888200.0,"xmax_3857":635070.0,"ymax_3857":908200.0,"pixel_size_m":10,"width":2000,"height":2000,"has_candidate":true,"has_permanent":true,"bounds_source":"verified_raster_headers","bounds_wgs84":[5.5252678180339405,7.953172411312448,5.704930874857844,8.131068495584236],"permanent_processing_status":"saved"},"geometry":{"type":"Polygon","coordinates":[[[5.704930874857844,7.953172411312448],[5.704930874857844,8.131068495584236],[5.5252678180339405,8.131068495584236],[5.5252678180339405,7.953172411312448],[5.704930874857844,7.953172411312448]]]},"bbox":[5.5252678180339405,7.953172411312448,5.704930874857844,8.131068495584236]},{"type":"Feature","properties":{"tile_id":68,"candidate":true,"permanent":true,"candidate_path":"data/candidate_change/Kogi_VegLoss_tile_0068.tif","permanent_path":"data/permanent_change/Kogi_PermanentChange_tile_0068.tif","xmin_3857":635070.0,"ymin_3857":888200.0,"xmax_3857":655070.0,"ymax_3857":908200.0,"pixel_size_m":10,"width":2000,"height":2000,"has_candidate":true,"has_permanent":true,"bounds_source":"verified_raster_headers","bounds_wgs84":[5.704930874857844,7.953172411312448,5.884593931681748,8.131068495584236],"permanent_processing_status":"saved"},"geometry":{"type":"Polygon","coordinates":[[[5.884593931681748,7.953172411312448],[5.884593931681748,8.131068495584236],[5.704930874857844,8.131068495584236],[5.704930874857844,7.953172411312448],[5.884593931681748,7.953172411312448]]]},"bbox":[5.704930874857844,7.953172411312448,5.884593931681748,8.131068495584236]},{"type":"Feature","properties":{"tile_id":69,"candidate":true,"permanent":true,"candidate_path":"data/candidate_change/Kogi_VegLoss_tile_0069.tif","permanent_path":"data/permanent_change/Kogi_PermanentChange_tile_0069.tif","xmin_3857":655070.0,"ymin_3857":888200.0,"xmax_3857":675070.0,"ymax_3857":908200.0,"pixel_size_m":10,"width":2000,"height":2000,"has_candidate":true,"has_permanent":true,"bounds_source":"verified_raster_headers","bounds_wgs84":[5.884593931681748,7.953172411312448,6.064256988505654,8.131068495584236],"permanent_processing_status":"saved"},"geometry":{"type":"Polygon","coordinates":[[[6.064256988505654,7.953172411312448],[6.064256988505654,8.131068495584236],[5.884593931681748,8.131068495584236],[5.884593931681748,7.953172411312448],[6.064256988505654,7.953172411312448]]]},"bbox":[5.884593931681748,7.953172411312448,6.064256988505654,8.131068495584236]},{"type":"Feature","properties":{"tile_id":70,"candidate":true,"permanent":true,"candidate_path":"data/candidate_change/Kogi_VegLoss_tile_0070.tif","permanent_path":"data/permanent_change/Kogi_PermanentChange_tile_0070.tif","xmin_3857":675070.0,"ymin_3857":888200.0,"xmax_3857":695070.0,"ymax_3857":908200.0,"pixel_size_m":10,"width":2000,"height":2000,"has_candidate":true,"has_permanent":true,"bounds_source":"verified_raster_headers","bounds_wgs84":[6.064256988505654,7.953172411312448,6.243920045329557,8.131068495584236],"permanent_processing_status":"saved"},"geometry":{"type":"Polygon","coordinates":[[[6.243920045329557,7.953172411312448],[6.243920045329557,8.131068495584236],[6.064256988505654,8.131068495584236],[6.064256988505654,7.953172411312448],[6.243920045329557,7.953172411312448]]]},"bbox":[6.064256988505654,7.953172411312448,6.243920045329557,8.131068495584236]},{"type":"Feature","properties":{"tile_id":71,"candidate":true,"permanent":false,"candidate_path":"data/candidate_change/Kogi_VegLoss_tile_0071.tif","permanent_path":null,"xmin_3857":695070.0,"ymin_3857":888200.0,"xmax_3857":715070.0,"ymax_3857":908200.0,"pixel_size_m":10,"width":2000,"height":2000,"has_candidate":true,"has_permanent":false,"bounds_source":"verified_raster_headers","bounds_wgs84":[6.243920045329557,7.953172411312448,6.4235831021534615,8.131068495584236],"permanent_processing_status":"no_change"},"geometry":{"type":"Polygon","coordinates":[[[6.4235831021534615,7.953172411312448],[6.4235831021534615,8.131068495584236],[6.243920045329557,8.131068495584236],[6.243920045329557,7.953172411312448],[6.4235831021534615,7.953172411312448]]]},"bbox":[6.243920045329557,7.953172411312448,6.4235831021534615,8.131068495584236]},{"type":"Feature","properties":{"tile_id":72,"candidate":true,"permanent":true,"candidate_path":"data/candidate_change/Kogi_VegLoss_tile_0072.tif","permanent_path":"data/permanent_change/Kogi_PermanentChange_tile_0072.tif","xmin_3857":715070.0,"ymin_3857":888200.0,"xmax_3857":735070.0,"ymax_3857":908200.0,"pixel_size_m":10,"width":2000,"height":2000,"has_candidate":true,"has_permanent":true,"bounds_source":"verified_raster_headers","bounds_wgs84":[6.4235831021534615,7.953172411312448,6.603246158977366,8.131068495584236],"permanent_processing_status":"saved"},"geometry":{"type":"Polygon","coordinates":[[[6.603246158977366,7.953172411312448],[6.603246158977366,8.131068495584236],[6.4235831021534615,8.131068495584236],[6.4235831021534615,7.953172411312448],[6.603246158977366,7.953172411312448]]]},"bbox":[6.4235831021534615,7.953172411312448,6.603246158977366,8.131068495584236]},{"type":"Feature","properties":{"tile_id":73,"candidate":true,"permanent":true,"candidate_path":"data/candidate_change/Kogi_VegLoss_tile_0073.tif","permanent_path":"data/permanent_change/Kogi_PermanentChange_tile_0073.tif","xmin_3857":735070.0,"ymin_3857":888200.0,"xmax_3857":755070.0,"ymax_3857":908200.0,"pixel_size_m":10,"width":2000,"height":2000,"has_candidate":true,"has_permanent":true,"bounds_source":"verified_raster_headers","bounds_wgs84":[6.603246158977366,7.953172411312448,6.78290921580127,8.131068495584236],"permanent_processing_status":"saved"},"geometry":{"type":"Polygon","coordinates":[[[6.78290921580127,7.953172411312448],[6.78290921580127,8.131068495584236],[6.603246158977366,8.131068495584236],[6.603246158977366,7.953172411312448],[6.78290921580127,7.953172411312448]]]},"bbox":[6.603246158977366,7.953172411312448,6.78290921580127,8.131068495584236]},{"type":"Feature","properties":{"tile_id":74,"candidate":true,"permanent":true,"candidate_path":"data/candidate_change/Kogi_VegLoss_tile_0074.tif","permanent_path":"data/permanent_change/Kogi_PermanentChange_tile_0074.tif","xmin_3857":755070.0,"ymin_3857":888200.0,"xmax_3857":775070.0,"ymax_3857":908200.0,"pixel_size_m":10,"width":2000,"height":2000,"has_candidate":true,"has_permanent":true,"bounds_source":"verified_raster_headers","bounds_wgs84":[6.78290921580127,7.953172411312448,6.962572272625175,8.131068495584236],"permanent_processing_status":"saved"},"geometry":{"type":"Polygon","coordinates":[[[6.962572272625175,7.953172411312448],[6.962572272625175,8.131068495584236],[6.78290921580127,8.131068495584236],[6.78290921580127,7.953172411312448],[6.962572272625175,7.953172411312448]]]},"bbox":[6.78290921580127,7.953172411312448,6.962572272625175,8.131068495584236]},{"type":"Feature","properties":{"tile_id":75,"candidate":true,"permanent":true,"candidate_path":"data/candidate_change/Kogi_VegLoss_tile_0075.tif","permanent_path":"data/permanent_change/Kogi_PermanentChange_tile_0075.tif","xmin_3857":775070.0,"ymin_3857":888200.0,"xmax_3857":795070.0,"ymax_3857":908200.0,"pixel_size_m":10,"width":2000,"height":2000,"has_candidate":true,"has_permanent":true,"bounds_source":"verified_raster_headers","bounds_wgs84":[6.962572272625175,7.953172411312448,7.142235329449079,8.131068495584236],"permanent_processing_status":"saved"},"geometry":{"type":"Polygon","coordinates":[[[7.142235329449079,7.953172411312448],[7.142235329449079,8.131068495584236],[6.962572272625175,8.131068495584236],[6.962572272625175,7.953172411312448],[7.142235329449079,7.953172411312448]]]},"bbox":[6.962572272625175,7.953172411312448,7.142235329449079,8.131068495584236]},{"type":"Feature","properties":{"tile_id":76,"candidate":true,"permanent":true,"candidate_path":"data/candidate_change/Kogi_VegLoss_tile_0076.tif","permanent_path":"data/permanent_change/Kogi_PermanentChange_tile_0076.tif","xmin_3857":795070.0,"ymin_3857":888200.0,"xmax_3857":815070.0,"ymax_3857":908200.0,"pixel_size_m":10,"width":2000,"height":2000,"has_candidate":true,"has_permanent":true,"bounds_source":"verified_raster_headers","bounds_wgs84":[7.142235329449079,7.953172411312448,7.3218983862729825,8.131068495584236],"permanent_processing_status":"saved"},"geometry":{"type":"Polygon","coordinates":[[[7.3218983862729825,7.953172411312448],[7.3218983862729825,8.131068495584236],[7.142235329449079,8.131068495584236],[7.142235329449079,7.953172411312448],[7.3218983862729825,7.953172411312448]]]},"bbox":[7.142235329449079,7.953172411312448,7.3218983862729825,8.131068495584236]},{"type":"Feature","properties":{"tile_id":77,"candidate":true,"permanent":true,"candidate_path":"data/candidate_change/Kogi_VegLoss_tile_0077.tif","permanent_path":"data/permanent_change/Kogi_PermanentChange_tile_0077.tif","xmin_3857":815070.0,"ymin_3857":888200.0,"xmax_3857":835070.0,"ymax_3857":908200.0,"pixel_size_m":10,"width":2000,"height":2000,"has_candidate":true,"has_permanent":true,"bounds_source":"verified_raster_headers","bounds_wgs84":[7.3218983862729825,7.953172411312448,7.501561443096887,8.131068495584236],"permanent_processing_status":"saved"},"geometry":{"type":"Polygon","coordinates":[[[7.501561443096887,7.953172411312448],[7.501561443096887,8.131068495584236],[7.3218983862729825,8.131068495584236],[7.3218983862729825,7.953172411312448],[7.501561443096887,7.953172411312448]]]},"bbox":[7.3218983862729825,7.953172411312448,7.501561443096887,8.131068495584236]},{"type":"Feature","properties":{"tile_id":78,"candidate":true,"permanent":true,"candidate_path":"data/candidate_change/Kogi_VegLoss_tile_0078.tif","permanent_path":"data/permanent_change/Kogi_PermanentChange_tile_0078.tif","xmin_3857":835070.0,"ymin_3857":888200.0,"xmax_3857":855070.0,"ymax_3857":908200.0,"pixel_size_m":10,"width":2000,"height":2000,"has_candidate":true,"has_permanent":true,"bounds_source":"verified_raster_headers","bounds_wgs84":[7.501561443096887,7.953172411312448,7.681224499920792,8.131068495584236],"permanent_processing_status":"saved"},"geometry":{"type":"Polygon","coordinates":[[[7.681224499920792,7.953172411312448],[7.681224499920792,8.131068495584236],[7.501561443096887,8.131068495584236],[7.501561443096887,7.953172411312448],[7.681224499920792,7.953172411312448]]]},"bbox":[7.501561443096887,7.953172411312448,7.681224499920792,8.131068495584236]},{"type":"Feature","properties":{"tile_id":79,"candidate":true,"permanent":true,"candidate_path":"data/candidate_change/Kogi_VegLoss_tile_0079.tif","permanent_path":"data/permanent_change/Kogi_PermanentChange_tile_0079.tif","xmin_3857":595070.0,"ymin_3857":908200.0,"xmax_3857":615070.0,"ymax_3857":928200.0,"pixel_size_m":10,"width":2000,"height":2000,"has_candidate":true,"has_permanent":true,"bounds_source":"verified_raster_headers","bounds_wgs84":[5.345604761210036,8.131068495584236,5.5252678180339405,8.308885699030117],"permanent_processing_status":"saved"},"geometry":{"type":"Polygon","coordinates":[[[5.5252678180339405,8.131068495584236],[5.5252678180339405,8.308885699030117],[5.345604761210036,8.308885699030117],[5.345604761210036,8.131068495584236],[5.5252678180339405,8.131068495584236]]]},"bbox":[5.345604761210036,8.131068495584236,5.5252678180339405,8.308885699030117]},{"type":"Feature","properties":{"tile_id":80,"candidate":true,"permanent":true,"candidate_path":"data/candidate_change/Kogi_VegLoss_tile_0080.tif","permanent_path":"data/permanent_change/Kogi_PermanentChange_tile_0080.tif","xmin_3857":615070.0,"ymin_3857":908200.0,"xmax_3857":635070.0,"ymax_3857":928200.0,"pixel_size_m":10,"width":2000,"height":2000,"has_candidate":true,"has_permanent":true,"bounds_source":"verified_raster_headers","bounds_wgs84":[5.5252678180339405,8.131068495584236,5.704930874857844,8.308885699030117],"permanent_processing_status":"saved"},"geometry":{"type":"Polygon","coordinates":[[[5.704930874857844,8.131068495584236],[5.704930874857844,8.308885699030117],[5.5252678180339405,8.308885699030117],[5.5252678180339405,8.131068495584236],[5.704930874857844,8.131068495584236]]]},"bbox":[5.5252678180339405,8.131068495584236,5.704930874857844,8.308885699030117]},{"type":"Feature","properties":{"tile_id":81,"candidate":true,"permanent":true,"candidate_path":"data/candidate_change/Kogi_VegLoss_tile_0081.tif","permanent_path":"data/permanent_change/Kogi_PermanentChange_tile_0081.tif","xmin_3857":635070.0,"ymin_3857":908200.0,"xmax_3857":655070.0,"ymax_3857":928200.0,"pixel_size_m":10,"width":2000,"height":2000,"has_candidate":true,"has_permanent":true,"bounds_source":"verified_raster_headers","bounds_wgs84":[5.704930874857844,8.131068495584236,5.884593931681748,8.308885699030117],"permanent_processing_status":"saved"},"geometry":{"type":"Polygon","coordinates":[[[5.884593931681748,8.131068495584236],[5.884593931681748,8.308885699030117],[5.704930874857844,8.308885699030117],[5.704930874857844,8.131068495584236],[5.884593931681748,8.131068495584236]]]},"bbox":[5.704930874857844,8.131068495584236,5.884593931681748,8.308885699030117]},{"type":"Feature","properties":{"tile_id":82,"candidate":true,"permanent":true,"candidate_path":"data/candidate_change/Kogi_VegLoss_tile_0082.tif","permanent_path":"data/permanent_change/Kogi_PermanentChange_tile_0082.tif","xmin_3857":655070.0,"ymin_3857":908200.0,"xmax_3857":675070.0,"ymax_3857":928200.0,"pixel_size_m":10,"width":2000,"height":2000,"has_candidate":true,"has_permanent":true,"bounds_source":"verified_raster_headers","bounds_wgs84":[5.884593931681748,8.131068495584236,6.064256988505654,8.308885699030117],"permanent_processing_status":"saved"},"geometry":{"type":"Polygon","coordinates":[[[6.064256988505654,8.131068495584236],[6.064256988505654,8.308885699030117],[5.884593931681748,8.308885699030117],[5.884593931681748,8.131068495584236],[6.064256988505654,8.131068495584236]]]},"bbox":[5.884593931681748,8.131068495584236,6.064256988505654,8.308885699030117]},{"type":"Feature","properties":{"tile_id":83,"candidate":true,"permanent":true,"candidate_path":"data/candidate_change/Kogi_VegLoss_tile_0083.tif","permanent_path":"data/permanent_change/Kogi_PermanentChange_tile_0083.tif","xmin_3857":675070.0,"ymin_3857":908200.0,"xmax_3857":695070.0,"ymax_3857":928200.0,"pixel_size_m":10,"width":2000,"height":2000,"has_candidate":true,"has_permanent":true,"bounds_source":"verified_raster_headers","bounds_wgs84":[6.064256988505654,8.131068495584236,6.243920045329557,8.308885699030117],"permanent_processing_status":"saved"},"geometry":{"type":"Polygon","coordinates":[[[6.243920045329557,8.131068495584236],[6.243920045329557,8.308885699030117],[6.064256988505654,8.308885699030117],[6.064256988505654,8.131068495584236],[6.243920045329557,8.131068495584236]]]},"bbox":[6.064256988505654,8.131068495584236,6.243920045329557,8.308885699030117]},{"type":"Feature","properties":{"tile_id":84,"candidate":true,"permanent":true,"candidate_path":"data/candidate_change/Kogi_VegLoss_tile_0084.tif","permanent_path":"data/permanent_change/Kogi_PermanentChange_tile_0084.tif","xmin_3857":695070.0,"ymin_3857":908200.0,"xmax_3857":715070.0,"ymax_3857":928200.0,"pixel_size_m":10,"width":2000,"height":2000,"has_candidate":true,"has_permanent":true,"bounds_source":"verified_raster_headers","bounds_wgs84":[6.243920045329557,8.131068495584236,6.4235831021534615,8.308885699030117],"permanent_processing_status":"saved"},"geometry":{"type":"Polygon","coordinates":[[[6.4235831021534615,8.131068495584236],[6.4235831021534615,8.308885699030117],[6.243920045329557,8.308885699030117],[6.243920045329557,8.131068495584236],[6.4235831021534615,8.131068495584236]]]},"bbox":[6.243920045329557,8.131068495584236,6.4235831021534615,8.308885699030117]},{"type":"Feature","properties":{"tile_id":85,"candidate":true,"permanent":true,"candidate_path":"data/candidate_change/Kogi_VegLoss_tile_0085.tif","permanent_path":"data/permanent_change/Kogi_PermanentChange_tile_0085.tif","xmin_3857":715070.0,"ymin_3857":908200.0,"xmax_3857":735070.0,"ymax_3857":928200.0,"pixel_size_m":10,"width":2000,"height":2000,"has_candidate":true,"has_permanent":true,"bounds_source":"verified_raster_headers","bounds_wgs84":[6.4235831021534615,8.131068495584236,6.603246158977366,8.308885699030117],"permanent_processing_status":"saved"},"geometry":{"type":"Polygon","coordinates":[[[6.603246158977366,8.131068495584236],[6.603246158977366,8.308885699030117],[6.4235831021534615,8.308885699030117],[6.4235831021534615,8.131068495584236],[6.603246158977366,8.131068495584236]]]},"bbox":[6.4235831021534615,8.131068495584236,6.603246158977366,8.308885699030117]},{"type":"Feature","properties":{"tile_id":86,"candidate":true,"permanent":true,"candidate_path":"data/candidate_change/Kogi_VegLoss_tile_0086.tif","permanent_path":"data/permanent_change/Kogi_PermanentChange_tile_0086.tif","xmin_3857":735070.0,"ymin_3857":908200.0,"xmax_3857":755070.0,"ymax_3857":928200.0,"pixel_size_m":10,"width":2000,"height":2000,"has_candidate":true,"has_permanent":true,"bounds_source":"verified_raster_headers","bounds_wgs84":[6.603246158977366,8.131068495584236,6.78290921580127,8.308885699030117],"permanent_processing_status":"saved"},"geometry":{"type":"Polygon","coordinates":[[[6.78290921580127,8.131068495584236],[6.78290921580127,8.308885699030117],[6.603246158977366,8.308885699030117],[6.603246158977366,8.131068495584236],[6.78290921580127,8.131068495584236]]]},"bbox":[6.603246158977366,8.131068495584236,6.78290921580127,8.308885699030117]},{"type":"Feature","properties":{"tile_id":87,"candidate":true,"permanent":true,"candidate_path":"data/candidate_change/Kogi_VegLoss_tile_0087.tif","permanent_path":"data/permanent_change/Kogi_PermanentChange_tile_0087.tif","xmin_3857":755070.0,"ymin_3857":908200.0,"xmax_3857":775070.0,"ymax_3857":928200.0,"pixel_size_m":10,"width":2000,"height":2000,"has_candidate":true,"has_permanent":true,"bounds_source":"verified_raster_headers","bounds_wgs84":[6.78290921580127,8.131068495584236,6.962572272625175,8.308885699030117],"permanent_processing_status":"saved"},"geometry":{"type":"Polygon","coordinates":[[[6.962572272625175,8.131068495584236],[6.962572272625175,8.308885699030117],[6.78290921580127,8.308885699030117],[6.78290921580127,8.131068495584236],[6.962572272625175,8.131068495584236]]]},"bbox":[6.78290921580127,8.131068495584236,6.962572272625175,8.308885699030117]},{"type":"Feature","properties":{"tile_id":88,"candidate":true,"permanent":true,"candidate_path":"data/candidate_change/Kogi_VegLoss_tile_0088.tif","permanent_path":"data/permanent_change/Kogi_PermanentChange_tile_0088.tif","xmin_3857":775070.0,"ymin_3857":908200.0,"xmax_3857":795070.0,"ymax_3857":928200.0,"pixel_size_m":10,"width":2000,"height":2000,"has_candidate":true,"has_permanent":true,"bounds_source":"verified_raster_headers","bounds_wgs84":[6.962572272625175,8.131068495584236,7.142235329449079,8.308885699030117],"permanent_processing_status":"saved"},"geometry":{"type":"Polygon","coordinates":[[[7.142235329449079,8.131068495584236],[7.142235329449079,8.308885699030117],[6.962572272625175,8.308885699030117],[6.962572272625175,8.131068495584236],[7.142235329449079,8.131068495584236]]]},"bbox":[6.962572272625175,8.131068495584236,7.142235329449079,8.308885699030117]},{"type":"Feature","properties":{"tile_id":89,"candidate":true,"permanent":true,"candidate_path":"data/candidate_change/Kogi_VegLoss_tile_0089.tif","permanent_path":"data/permanent_change/Kogi_PermanentChange_tile_0089.tif","xmin_3857":595070.0,"ymin_3857":928200.0,"xmax_3857":615070.0,"ymax_3857":948200.0,"pixel_size_m":10,"width":2000,"height":2000,"has_candidate":true,"has_permanent":true,"bounds_source":"verified_raster_headers","bounds_wgs84":[5.345604761210036,8.308885699030117,5.5252678180339405,8.486622344718842],"permanent_processing_status":"saved"},"geometry":{"type":"Polygon","coordinates":[[[5.5252678180339405,8.308885699030117],[5.5252678180339405,8.486622344718842],[5.345604761210036,8.486622344718842],[5.345604761210036,8.308885699030117],[5.5252678180339405,8.308885699030117]]]},"bbox":[5.345604761210036,8.308885699030117,5.5252678180339405,8.486622344718842]},{"type":"Feature","properties":{"tile_id":90,"candidate":true,"permanent":true,"candidate_path":"data/candidate_change/Kogi_VegLoss_tile_0090.tif","permanent_path":"data/permanent_change/Kogi_PermanentChange_tile_0090.tif","xmin_3857":615070.0,"ymin_3857":928200.0,"xmax_3857":635070.0,"ymax_3857":948200.0,"pixel_size_m":10,"width":2000,"height":2000,"has_candidate":true,"has_permanent":true,"bounds_source":"verified_raster_headers","bounds_wgs84":[5.5252678180339405,8.308885699030117,5.704930874857844,8.486622344718842],"permanent_processing_status":"saved"},"geometry":{"type":"Polygon","coordinates":[[[5.704930874857844,8.308885699030117],[5.704930874857844,8.486622344718842],[5.5252678180339405,8.486622344718842],[5.5252678180339405,8.308885699030117],[5.704930874857844,8.308885699030117]]]},"bbox":[5.5252678180339405,8.308885699030117,5.704930874857844,8.486622344718842]},{"type":"Feature","properties":{"tile_id":91,"candidate":true,"permanent":true,"candidate_path":"data/candidate_change/Kogi_VegLoss_tile_0091.tif","permanent_path":"data/permanent_change/Kogi_PermanentChange_tile_0091.tif","xmin_3857":635070.0,"ymin_3857":928200.0,"xmax_3857":655070.0,"ymax_3857":948200.0,"pixel_size_m":10,"width":2000,"height":2000,"has_candidate":true,"has_permanent":true,"bounds_source":"verified_raster_headers","bounds_wgs84":[5.704930874857844,8.308885699030117,5.884593931681748,8.486622344718842],"permanent_processing_status":"saved"},"geometry":{"type":"Polygon","coordinates":[[[5.884593931681748,8.308885699030117],[5.884593931681748,8.486622344718842],[5.704930874857844,8.486622344718842],[5.704930874857844,8.308885699030117],[5.884593931681748,8.308885699030117]]]},"bbox":[5.704930874857844,8.308885699030117,5.884593931681748,8.486622344718842]},{"type":"Feature","properties":{"tile_id":92,"candidate":false,"permanent":false,"candidate_path":null,"permanent_path":null,"xmin_3857":655070,"ymin_3857":928200,"xmax_3857":675070,"ymax_3857":948200,"pixel_size_m":10,"width":2000,"height":2000,"has_candidate":false,"has_permanent":false,"bounds_source":"existing_processing_grid_no_saved_raster","bounds_wgs84":[5.884593931681749,8.30888569903013,6.064256988505654,8.486622344718855],"permanent_processing_status":"no_change"},"geometry":{"type":"Polygon","coordinates":[[[5.884593931681749,8.30888569903013],[6.064256988505654,8.30888569903013],[6.064256988505654,8.486622344718855],[5.884593931681749,8.486622344718855],[5.884593931681749,8.30888569903013]]]},"bbox":[5.884593931681749,8.30888569903013,6.064256988505654,8.486622344718855]},{"type":"Feature","properties":{"tile_id":93,"candidate":true,"permanent":true,"candidate_path":"data/candidate_change/Kogi_VegLoss_tile_0093.tif","permanent_path":"data/permanent_change/Kogi_PermanentChange_tile_0093.tif","xmin_3857":675070.0,"ymin_3857":928200.0,"xmax_3857":695070.0,"ymax_3857":948200.0,"pixel_size_m":10,"width":2000,"height":2000,"has_candidate":true,"has_permanent":true,"bounds_source":"verified_raster_headers","bounds_wgs84":[6.064256988505654,8.308885699030117,6.243920045329557,8.486622344718842],"permanent_processing_status":"saved"},"geometry":{"type":"Polygon","coordinates":[[[6.243920045329557,8.308885699030117],[6.243920045329557,8.486622344718842],[6.064256988505654,8.486622344718842],[6.064256988505654,8.308885699030117],[6.243920045329557,8.308885699030117]]]},"bbox":[6.064256988505654,8.308885699030117,6.243920045329557,8.486622344718842]},{"type":"Feature","properties":{"tile_id":94,"candidate":true,"permanent":true,"candidate_path":"data/candidate_change/Kogi_VegLoss_tile_0094.tif","permanent_path":"data/permanent_change/Kogi_PermanentChange_tile_0094.tif","xmin_3857":695070.0,"ymin_3857":928200.0,"xmax_3857":715070.0,"ymax_3857":948200.0,"pixel_size_m":10,"width":2000,"height":2000,"has_candidate":true,"has_permanent":true,"bounds_source":"verified_raster_headers","bounds_wgs84":[6.243920045329557,8.308885699030117,6.4235831021534615,8.486622344718842],"permanent_processing_status":"saved"},"geometry":{"type":"Polygon","coordinates":[[[6.4235831021534615,8.308885699030117],[6.4235831021534615,8.486622344718842],[6.243920045329557,8.486622344718842],[6.243920045329557,8.308885699030117],[6.4235831021534615,8.308885699030117]]]},"bbox":[6.243920045329557,8.308885699030117,6.4235831021534615,8.486622344718842]},{"type":"Feature","properties":{"tile_id":95,"candidate":true,"permanent":true,"candidate_path":"data/candidate_change/Kogi_VegLoss_tile_0095.tif","permanent_path":"data/permanent_change/Kogi_PermanentChange_tile_0095.tif","xmin_3857":715070.0,"ymin_3857":928200.0,"xmax_3857":735070.0,"ymax_3857":948200.0,"pixel_size_m":10,"width":2000,"height":2000,"has_candidate":true,"has_permanent":true,"bounds_source":"verified_raster_headers","bounds_wgs84":[6.4235831021534615,8.308885699030117,6.603246158977366,8.486622344718842],"permanent_processing_status":"saved"},"geometry":{"type":"Polygon","coordinates":[[[6.603246158977366,8.308885699030117],[6.603246158977366,8.486622344718842],[6.4235831021534615,8.486622344718842],[6.4235831021534615,8.308885699030117],[6.603246158977366,8.308885699030117]]]},"bbox":[6.4235831021534615,8.308885699030117,6.603246158977366,8.486622344718842]},{"type":"Feature","properties":{"tile_id":96,"candidate":false,"permanent":false,"candidate_path":null,"permanent_path":null,"xmin_3857":735070,"ymin_3857":928200,"xmax_3857":755070,"ymax_3857":948200,"pixel_size_m":10,"width":2000,"height":2000,"has_candidate":false,"has_permanent":false,"bounds_source":"existing_processing_grid_no_saved_raster","bounds_wgs84":[6.603246158977366,8.30888569903013,6.78290921580127,8.486622344718855],"permanent_processing_status":"no_change"},"geometry":{"type":"Polygon","coordinates":[[[6.603246158977366,8.30888569903013],[6.78290921580127,8.30888569903013],[6.78290921580127,8.486622344718855],[6.603246158977366,8.486622344718855],[6.603246158977366,8.30888569903013]]]},"bbox":[6.603246158977366,8.30888569903013,6.78290921580127,8.486622344718855]},{"type":"Feature","properties":{"tile_id":97,"candidate":true,"permanent":true,"candidate_path":"data/candidate_change/Kogi_VegLoss_tile_0097.tif","permanent_path":"data/permanent_change/Kogi_PermanentChange_tile_0097.tif","xmin_3857":755070.0,"ymin_3857":928200.0,"xmax_3857":775070.0,"ymax_3857":948200.0,"pixel_size_m":10,"width":2000,"height":2000,"has_candidate":true,"has_permanent":true,"bounds_source":"verified_raster_headers","bounds_wgs84":[6.78290921580127,8.308885699030117,6.962572272625175,8.486622344718842],"permanent_processing_status":"saved"},"geometry":{"type":"Polygon","coordinates":[[[6.962572272625175,8.308885699030117],[6.962572272625175,8.486622344718842],[6.78290921580127,8.486622344718842],[6.78290921580127,8.308885699030117],[6.962572272625175,8.308885699030117]]]},"bbox":[6.78290921580127,8.308885699030117,6.962572272625175,8.486622344718842]},{"type":"Feature","properties":{"tile_id":98,"candidate":false,"permanent":false,"candidate_path":null,"permanent_path":null,"xmin_3857":775070,"ymin_3857":928200,"xmax_3857":795070,"ymax_3857":948200,"pixel_size_m":10,"width":2000,"height":2000,"has_candidate":false,"has_permanent":false,"bounds_source":"existing_processing_grid_no_saved_raster","bounds_wgs84":[6.962572272625175,8.30888569903013,7.142235329449079,8.486622344718855],"permanent_processing_status":"no_change"},"geometry":{"type":"Polygon","coordinates":[[[6.962572272625175,8.30888569903013],[7.142235329449079,8.30888569903013],[7.142235329449079,8.486622344718855],[6.962572272625175,8.486622344718855],[6.962572272625175,8.30888569903013]]]},"bbox":[6.962572272625175,8.30888569903013,7.142235329449079,8.486622344718855]},{"type":"Feature","properties":{"tile_id":99,"candidate":false,"permanent":false,"candidate_path":null,"permanent_path":null,"xmin_3857":595070,"ymin_3857":948200,"xmax_3857":615070,"ymax_3857":968200,"pixel_size_m":10,"width":2000,"height":2000,"has_candidate":false,"has_permanent":false,"bounds_source":"existing_processing_grid_no_saved_raster","bounds_wgs84":[5.345604761210035,8.486622344718855,5.5252678180339405,8.664276759580357],"permanent_processing_status":"no_change"},"geometry":{"type":"Polygon","coordinates":[[[5.345604761210035,8.486622344718855],[5.5252678180339405,8.486622344718855],[5.5252678180339405,8.664276759580357],[5.345604761210035,8.664276759580357],[5.345604761210035,8.486622344718855]]]},"bbox":[5.345604761210035,8.486622344718855,5.5252678180339405,8.664276759580357]},{"type":"Feature","properties":{"tile_id":100,"candidate":false,"permanent":false,"candidate_path":null,"permanent_path":null,"xmin_3857":615070,"ymin_3857":948200,"xmax_3857":635070,"ymax_3857":968200,"pixel_size_m":10,"width":2000,"height":2000,"has_candidate":false,"has_permanent":false,"bounds_source":"existing_processing_grid_no_saved_raster","bounds_wgs84":[5.5252678180339405,8.486622344718855,5.704930874857845,8.664276759580357],"permanent_processing_status":"no_change"},"geometry":{"type":"Polygon","coordinates":[[[5.5252678180339405,8.486622344718855],[5.704930874857845,8.486622344718855],[5.704930874857845,8.664276759580357],[5.5252678180339405,8.664276759580357],[5.5252678180339405,8.486622344718855]]]},"bbox":[5.5252678180339405,8.486622344718855,5.704930874857845,8.664276759580357]},{"type":"Feature","properties":{"tile_id":101,"candidate":true,"permanent":true,"candidate_path":"data/candidate_change/Kogi_VegLoss_tile_0101.tif","permanent_path":"data/permanent_change/Kogi_PermanentChange_tile_0101.tif","xmin_3857":675070.0,"ymin_3857":948200.0,"xmax_3857":695070.0,"ymax_3857":968200.0,"pixel_size_m":10,"width":2000,"height":2000,"has_candidate":true,"has_permanent":true,"bounds_source":"verified_raster_headers","bounds_wgs84":[6.064256988505654,8.486622344718842,6.243920045329557,8.664276759580344],"permanent_processing_status":"saved"},"geometry":{"type":"Polygon","coordinates":[[[6.243920045329557,8.486622344718842],[6.243920045329557,8.664276759580344],[6.064256988505654,8.664276759580344],[6.064256988505654,8.486622344718842],[6.243920045329557,8.486622344718842]]]},"bbox":[6.064256988505654,8.486622344718842,6.243920045329557,8.664276759580344]},{"type":"Feature","properties":{"tile_id":102,"candidate":true,"permanent":true,"candidate_path":"data/candidate_change/Kogi_VegLoss_tile_0102.tif","permanent_path":"data/permanent_change/Kogi_PermanentChange_tile_0102.tif","xmin_3857":695070.0,"ymin_3857":948200.0,"xmax_3857":715070.0,"ymax_3857":968200.0,"pixel_size_m":10,"width":2000,"height":2000,"has_candidate":true,"has_permanent":true,"bounds_source":"verified_raster_headers","bounds_wgs84":[6.243920045329557,8.486622344718842,6.4235831021534615,8.664276759580344],"permanent_processing_status":"saved"},"geometry":{"type":"Polygon","coordinates":[[[6.4235831021534615,8.486622344718842],[6.4235831021534615,8.664276759580344],[6.243920045329557,8.664276759580344],[6.243920045329557,8.486622344718842],[6.4235831021534615,8.486622344718842]]]},"bbox":[6.243920045329557,8.486622344718842,6.4235831021534615,8.664276759580344]},{"type":"Feature","properties":{"tile_id":103,"candidate":true,"permanent":true,"candidate_path":"data/candidate_change/Kogi_VegLoss_tile_0103.tif","permanent_path":"data/permanent_change/Kogi_PermanentChange_tile_0103.tif","xmin_3857":675070.0,"ymin_3857":968200.0,"xmax_3857":695070.0,"ymax_3857":975100.0,"pixel_size_m":10,"width":2000,"height":690,"has_candidate":true,"has_permanent":true,"bounds_source":"verified_raster_headers","bounds_wgs84":[6.064256988505654,8.664276759580344,6.243920045329557,8.725548151301323],"permanent_processing_status":"saved"},"geometry":{"type":"Polygon","coordinates":[[[6.243920045329557,8.664276759580344],[6.243920045329557,8.725548151301323],[6.064256988505654,8.725548151301323],[6.064256988505654,8.664276759580344],[6.243920045329557,8.664276759580344]]]},"bbox":[6.064256988505654,8.664276759580344,6.243920045329557,8.725548151301323]},{"type":"Feature","properties":{"tile_id":104,"candidate":true,"permanent":true,"candidate_path":"data/candidate_change/Kogi_VegLoss_tile_0104.tif","permanent_path":"data/permanent_change/Kogi_PermanentChange_tile_0104.tif","xmin_3857":695070.0,"ymin_3857":968200.0,"xmax_3857":715070.0,"ymax_3857":975100.0,"pixel_size_m":10,"width":2000,"height":690,"has_candidate":true,"has_permanent":true,"bounds_source":"verified_raster_headers","bounds_wgs84":[6.243920045329557,8.664276759580344,6.4235831021534615,8.725548151301323],"permanent_processing_status":"saved"},"geometry":{"type":"Polygon","coordinates":[[[6.4235831021534615,8.664276759580344],[6.4235831021534615,8.725548151301323],[6.243920045329557,8.725548151301323],[6.243920045329557,8.664276759580344],[6.4235831021534615,8.664276759580344]]]},"bbox":[6.243920045329557,8.664276759580344,6.4235831021534615,8.725548151301323]}],"metadata":{"crs":"EPSG:4326","raster_crs":"EPSG:3857","processing_tiles":104,"bounds_verification":"All 183 saved raster headers read and matched to repository Git blob hashes. No-raster footprints retained from existing processing grid.","coverage_note":"No-change means no selected conversions under this workflow, not proof of no environmental change. Outside the processing boundary or index coverage, report no coverage."}}
